{
"type": "FeatureCollection",
"name": "ZEE",
"crs": { "type": "name", "properties": { "name": "urn:ogc:def:crs:OGC:1.3:CRS84" } },
"features": [
{"type":"Feature","properties":{"OBJECTID_1":7,"OBJECTID":233,"HECTARES":109.648,"SIM_ZONFIN":"ZEE","Shape_Leng":8246.38207229,"AREA_HAS":109.73874607,"Shape__Area":919336.8095703125,"Shape__Length":5820.7359760359514},"geometry":{"type":"Polygon","coordinates":[[[-74.863345507462299,11.012582799166101],[-74.863000792324598,11.012228517438199],[-74.862753317350396,11.012304036616399],[-74.862491776391593,11.0121875534878],[-74.862252144486803,11.012152514014],[-74.862214054222605,11.0120997421543],[-74.861905440588799,11.012037865030001],[-74.862108283731203,11.0120201258402],[-74.862543750233598,11.012051166646801],[-74.862584962550997,11.0117610615112],[-74.862717861260407,11.0112510184398],[-74.862779232951596,11.0110009882378],[-74.862799682766806,11.010920980903601],[-74.863186136177902,11.0102714327542],[-74.863836772919598,11.0092722592561],[-74.863999383223302,11.009042479012001],[-74.864192475782104,11.0087727424681],[-74.864304347623403,11.008582871847199],[-74.864497582697396,11.008253094123599],[-74.8647721823355,11.0077834083068],[-74.864843369247595,11.0076634911666],[-74.864610673276701,11.007552871167301],[-74.864337510050007,11.007422143311601],[-74.864206004602494,11.007351787488201],[-74.864094781383301,11.0072714717422],[-74.863801624707605,11.0070306200635],[-74.863710658935801,11.0069503516112],[-74.863690496912696,11.006910276729799],[-74.863558752389295,11.0069399890782],[-74.863436968646297,11.007039774446501],[-74.863051649146797,11.007218998744101],[-74.862757628881695,11.0073383936339],[-74.862504292279695,11.007387835833001],[-74.861967256420201,11.0074766409428],[-74.861622738019094,11.0075358746828],[-74.861258104945193,11.0075350201472],[-74.860953522893993,11.007834514112901],[-74.860496288540403,11.008433857221601],[-74.860769065756998,11.0087246994169],[-74.860890368890594,11.008825053086699],[-74.860829332380604,11.0089349870118],[-74.860272011252405,11.0090337484174],[-74.859582945250395,11.009162218787599],[-74.859464997178193,11.009184127617001],[-74.859423466958503,11.009161526275401],[-74.858677089183004,11.009293169006799],[-74.858589018316195,11.0093585848935],[-74.858143916408693,11.0094690483197],[-74.857850158542703,11.0094783629673],[-74.8575158614521,11.0094975889397],[-74.856808486956794,11.009826093974899],[-74.856809281966704,11.009821938289001],[-74.856674014510105,11.009697518416299],[-74.856633508367494,11.008925321437699],[-74.856585755163394,11.0083407099744],[-74.857088034663207,11.0081140732213],[-74.857977516036698,11.007976227173399],[-74.858463578301198,11.0071059931485],[-74.858019042491406,11.0066971159905],[-74.858198308875004,11.0060276834951],[-74.858184047162794,11.0056492131929],[-74.857827553910695,11.0051347419016],[-74.857559338536007,11.004722215566201],[-74.8574675615084,11.0040249322685],[-74.857868166984503,11.003067854346201],[-74.859116762633406,11.0014040672503],[-74.859167191947193,11.000749830864301],[-74.859390260172603,11.000699312355],[-74.860331642610902,11.0006227311661],[-74.861564593057594,11.0012009652846],[-74.862499705725796,11.0018939753468],[-74.863373826681993,11.002478057637401],[-74.864148750116698,11.0030694511796],[-74.864287698331097,11.003113273358201],[-74.864562862106695,11.0034080776582],[-74.865771624737107,11.003061512246701],[-74.866280314445305,11.003082619977199],[-74.866527445542999,11.0036255429746],[-74.865808164702997,11.0040820619864],[-74.865154801596802,11.0048970829511],[-74.865381410826203,11.005105506617999],[-74.865601750726299,11.0051595197576],[-74.865838891607495,11.0051970125695],[-74.865876152630605,11.005250599394],[-74.866593416288396,11.005500886173699],[-74.866982999948206,11.0054155529838],[-74.867211336825207,11.0054715278033],[-74.867631506845797,11.0062533945491],[-74.867994571069403,11.0062400237491],[-74.868000827421895,11.0062143452594],[-74.868158332766001,11.0065274072681],[-74.868040015313994,11.0080566682115],[-74.867461771913796,11.0100947042614],[-74.866943425331797,11.011056538619901],[-74.866740663484904,11.011418735365],[-74.864866729649705,11.012384606390301],[-74.864622313359703,11.0126056776122],[-74.8637284932597,11.012691875380799],[-74.863345507462299,11.012582799166101]]]}},
{"type":"Feature","properties":{"OBJECTID_1":8,"OBJECTID":233,"HECTARES":109.648,"SIM_ZONFIN":"ZEE","Shape_Leng":8246.38207229,"AREA_HAS":109.73874607,"Shape__Area":226650.0537109375,"Shape__Length":2602.6173766285792},"geometry":{"type":"Polygon","coordinates":[[[-74.847049782527705,11.011974137659401],[-74.847378778356003,11.011394874202001],[-74.848711912852096,11.0100505319466],[-74.849918105394494,11.009203667077699],[-74.852212761420802,11.008755930441399],[-74.852663926150001,11.0084788310101],[-74.853314982744806,11.009360219540101],[-74.854014927224696,11.009553847852199],[-74.854613814158995,11.0091935068761],[-74.854791049546293,11.009106929666499],[-74.855407345354806,11.0101946952063],[-74.855694603355204,11.0104589094709],[-74.855385892048204,11.0107034001706],[-74.854868403386405,11.011082439734899],[-74.854665414928405,11.0112520771255],[-74.854497187277801,11.011424376859701],[-74.854248159820401,11.011200212641],[-74.854240757591597,11.011186481452899],[-74.854232530255302,11.0111861428565],[-74.854145972574599,11.0111082263964],[-74.853815320650796,11.0110904857719],[-74.853780439394697,11.011090403098001],[-74.853611927044696,11.0110900034121],[-74.853035421623105,11.011122551324901],[-74.852792124047397,11.011171728628],[-74.852774017260302,11.0111747230345],[-74.852770391201005,11.011176121544599],[-74.852543428117897,11.0112219976565],[-74.852203746547403,11.011506076824899],[-74.8518979843453,11.0117224068239],[-74.851304599679693,11.0117549108672],[-74.850864220472602,11.011569591904699],[-74.850400549460801,11.011486768958701],[-74.850389553111796,11.0114848039875],[-74.849829803232495,11.0115671280318],[-74.849337931453803,11.011733268787699],[-74.848896856852903,11.0118328315477],[-74.848387615246907,11.012082587298201],[-74.847962841683994,11.0124173308278],[-74.847605458946305,11.012918418978],[-74.847095516493397,11.013453055338999],[-74.846950938562699,11.013531927756301],[-74.846740053466107,11.0134746752389],[-74.846684999136798,11.012776565165501],[-74.847049782527705,11.011974137659401]]]}},
{"type":"Feature","properties":{"OBJECTID_1":9,"OBJECTID":240,"HECTARES":1791.513,"SIM_ZONFIN":"ZEE","Shape_Leng":76641.544787799998,"AREA_HAS":1793.0012759399999,"Shape__Area":32118.041015625,"Shape__Length":834.79050758131928},"geometry":{"type":"Polygon","coordinates":[[[-74.914648660522204,10.955474224859101],[-74.915220576621806,10.955404874591199],[-74.915578647029804,10.955664539810201],[-74.915654425039193,10.9559286066174],[-74.915553516595594,10.956043834275899],[-74.914706688672993,10.9566419174391],[-74.914537015771103,10.9568356668705],[-74.913792881723694,10.957123974133101],[-74.913654884430798,10.9571774402361],[-74.913270100347304,10.9573265203841],[-74.912968910956494,10.9574432119769],[-74.912722419314207,10.957369290345399],[-74.914161918197294,10.9556315282895],[-74.914373886668898,10.955564068633301],[-74.914526255732397,10.955534017425901],[-74.914648660522204,10.955474224859101]]]}},
{"type":"Feature","properties":{"OBJECTID_1":10,"OBJECTID":240,"HECTARES":1791.513,"SIM_ZONFIN":"ZEE","Shape_Leng":76641.544787799998,"AREA_HAS":1793.0012759399999,"Shape__Area":355343.35546875,"Shape__Length":3512.5787911030502},"geometry":{"type":"Polygon","coordinates":[[[-74.898361656034595,10.975140942993001],[-74.898524347649797,10.974901127234],[-74.899263071574296,10.975062061208501],[-74.899304926869505,10.9746480050767],[-74.899238889376804,10.9738768536922],[-74.899036588456497,10.9734072463012],[-74.898882375870997,10.973239907749299],[-74.899298393855204,10.9729194635374],[-74.899416788806604,10.9725340412571],[-74.899508318792996,10.972534244439601],[-74.899567348244503,10.971318321524899],[-74.899910227802394,10.970604590080001],[-74.900496786952999,10.9701622006917],[-74.901117075278094,10.9701392852881],[-74.901516282224804,10.970412031335099],[-74.902350440162493,10.970460408674301],[-74.902350848983403,10.9702795300872],[-74.902306719168905,10.9699619853585],[-74.902125259574703,10.969255792215399],[-74.902291244513904,10.9688904670522],[-74.902710381715806,10.9686110743333],[-74.903366518019396,10.968599296207101],[-74.904268462378297,10.9687839093557],[-74.904499951752996,10.968546895348201],[-74.905789738668204,10.9700233280169],[-74.908056849119006,10.972618467275],[-74.906039922453203,10.9719768362951],[-74.904950151047601,10.9716301486402],[-74.904394234776902,10.9714532929546],[-74.899375168837096,10.9766624756244],[-74.899321954282101,10.976594769919],[-74.899269189308001,10.9765279530349],[-74.899233633933903,10.976188723246899],[-74.899234879290404,10.9756409719165],[-74.898361656034595,10.975140942993001]]]}},
{"type":"Feature","properties":{"OBJECTID_1":11,"OBJECTID":240,"HECTARES":1791.513,"SIM_ZONFIN":"ZEE","Shape_Leng":76641.544787799998,"AREA_HAS":1793.0012759399999,"Shape__Area":1166.6796875,"Shape__Length":164.16014434892466},"geometry":{"type":"Polygon","coordinates":[[[-74.897801023785107,10.977909926997899],[-74.898280967184704,10.977798089094501],[-74.897884666590002,10.9782093845999],[-74.897712831444295,10.9779740392284],[-74.897801023785107,10.977909926997899]]]}},
{"type":"Feature","properties":{"OBJECTID_1":12,"OBJECTID":240,"HECTARES":1791.513,"SIM_ZONFIN":"ZEE","Shape_Leng":76641.544787799998,"AREA_HAS":1793.0012759399999,"Shape__Area":29278.826171875,"Shape__Length":858.39622733141164},"geometry":{"type":"Polygon","coordinates":[[[-74.892235264215799,10.980714701205301],[-74.895557359072797,10.980624721742901],[-74.894177138279701,10.9820571205635],[-74.892232788830498,10.980715322480201],[-74.892235264215799,10.980714701205301]]]}},
{"type":"Feature","properties":{"OBJECTID_1":13,"OBJECTID":240,"HECTARES":1791.513,"SIM_ZONFIN":"ZEE","Shape_Leng":76641.544787799998,"AREA_HAS":1793.0012759399999,"Shape__Area":7997.4501953125,"Shape__Length":379.07187890037551},"geometry":{"type":"Polygon","coordinates":[[[-74.872589457766793,11.046981391704101],[-74.872775220361504,11.0466566196567],[-74.873487440123895,11.047653012953599],[-74.873092254907405,11.047749766408099],[-74.872803891115197,11.0478203666383],[-74.872781392689902,11.0477234409824],[-74.872539318987194,11.047615484363],[-74.872418696090094,11.0474467623929],[-74.872503921035502,11.047219728140201],[-74.872589457766793,11.046981391704101]]]}},
{"type":"Feature","properties":{"OBJECTID_1":14,"OBJECTID":240,"HECTARES":1791.513,"SIM_ZONFIN":"ZEE","Shape_Leng":76641.544787799998,"AREA_HAS":1793.0012759399999,"Shape__Area":549726.607421875,"Shape__Length":6818.3295044362594},"geometry":{"type":"Polygon","coordinates":[[[-74.871003222139393,11.0467742348402],[-74.870712742672893,11.046689905215899],[-74.870542915124403,11.0467607334629],[-74.870252264170702,11.0467487555881],[-74.8699862179934,11.046615870091101],[-74.869974457231393,11.046508446482299],[-74.870023149013903,11.046364985097499],[-74.869963035094699,11.046137616841399],[-74.870072436576194,11.0459705557991],[-74.870181953948006,11.0457548855266],[-74.870303687174996,11.045575417957901],[-74.870425190259397,11.0453722100213],[-74.870522432776397,11.0452650378357],[-74.870522916206099,11.045061549665499],[-74.870571550149293,11.0449418285696],[-74.870680895326203,11.0447985086226],[-74.870693450443397,11.0445713080837],[-74.870700141744294,11.044404010029099],[-74.870494802306993,11.044128823353001],[-74.870443107080902,11.0440913978229],[-74.870361708813704,11.044032422546501],[-74.870240716186203,11.0440208372295],[-74.870131629458399,11.044055630015601],[-74.869961916288702,11.044078977101099],[-74.869852711400696,11.0441635112273],[-74.869743767969098,11.0441383888028],[-74.8697442502272,11.0439348996394],[-74.8696086838209,11.0436757016122],[-74.869575645702596,11.043612317263801],[-74.869297756227098,11.0432883496459],[-74.868874895818806,11.0428091673519],[-74.868621640593204,11.042352989280101],[-74.868380313178093,11.042053977111401],[-74.868315942515693,11.041932864782],[-74.868259548609402,11.0418264669909],[-74.868041658865494,11.0417773492296],[-74.867787490195198,11.041705536263001],[-74.867557468905702,11.0417050020734],[-74.867376282472904,11.0415010905605],[-74.866965388987794,11.0411655070554],[-74.866723694268401,11.0409015383994],[-74.866500479420395,11.040566391060301],[-74.865787446339098,11.039881909557],[-74.865304288196,11.0393788411034],[-74.864869368835201,11.0389233660458],[-74.864712324166206,11.038675420045699],[-74.864664155029502,11.0385995644411],[-74.864567943713098,11.0382760174793],[-74.864568374031094,11.0380962689584],[-74.864495906331996,11.0380124430856],[-74.864350685289494,11.037964622718199],[-74.864096491976696,11.0379041127633],[-74.8638187558021,11.0376400571094],[-74.863552662700798,11.0374122051243],[-74.863374183555905,11.0372749975686],[-74.8629906672858,11.036980170474999],[-74.862640035378305,11.0366922023171],[-74.862374373852006,11.036404433698801],[-74.862279865510999,11.036326208333],[-74.862608681194303,11.036286281064701],[-74.862898978051007,11.0364418381861],[-74.863043623584403,11.036729323422399],[-74.863370338208796,11.0368499212447],[-74.863636288974007,11.037017856338],[-74.863744715691098,11.0372577763906],[-74.863986861093096,11.037330693929199],[-74.864229698257205,11.0371153362042],[-74.864351372057897,11.036840909320899],[-74.864521398383701,11.036685297316],[-74.864570204550205,11.036494357589699],[-74.864740257196601,11.0363274405226],[-74.865104135707398,11.036101059515699],[-74.865213622253094,11.0358978254209],[-74.865382988977004,11.0358982211201],[-74.865613350685905,11.0358738878707],[-74.865819792127496,11.0355634813109],[-74.866014473473996,11.0352654837596],[-74.866195940650499,11.0353495637794],[-74.866389054146197,11.035588548509301],[-74.866473165891094,11.0358284100801],[-74.866472480055705,11.0361155552912],[-74.866289698297706,11.036582025622501],[-74.866046892341402,11.0369047825158],[-74.865744065199394,11.0368441593362],[-74.8655623964965,11.0368437357085],[-74.865380329189406,11.0370106250235],[-74.865270785434006,11.037237599594601],[-74.865125164206106,11.0373570935422],[-74.864967612661601,11.037440382570299],[-74.865015592627003,11.037595372154801],[-74.865197118210901,11.037655712192601],[-74.865464098834295,11.0375127624354],[-74.865646252884105,11.0373096972657],[-74.865840050834507,11.0372626682095],[-74.866069612816602,11.0374542567262],[-74.866226564267393,11.037741768931101],[-74.866383398551307,11.0379580598697],[-74.866600859134493,11.038185797255499],[-74.866842807296806,11.0383423678112],[-74.867048365385799,11.0384027628167],[-74.8672786697866,11.0384032996686],[-74.867581528704903,11.038331652514101],[-74.867824190962295,11.0381886436553],[-74.868066624162793,11.038021893343499],[-74.868284825500098,11.037938742264201],[-74.868567485355598,11.0379393991931],[-74.868894319083097,11.0380113802871],[-74.869294047222496,11.037988566054],[-74.869609462515996,11.037809549319601],[-74.869767521007802,11.0375114638678],[-74.869993179702902,11.036817861182501],[-74.869969744340594,11.0365668362244],[-74.8698489542586,11.0363506314555],[-74.869655897350597,11.0360867769399],[-74.869704528800895,11.0359681874058],[-74.869753590600297,11.0357885514983],[-74.869644846059799,11.035680902585799],[-74.869402641946607,11.035631729017],[-74.869378977563201,11.0353569635258],[-74.8694169039032,11.0346866664025],[-74.869623342042104,11.034496090095899],[-74.869841769204399,11.0343168475681],[-74.869757996988298,11.033933414016101],[-74.8694070213174,11.033789026529901],[-74.8689347460232,11.0337641908958],[-74.8683539255602,11.033548047612801],[-74.868045409089305,11.0334749782252],[-74.867682389352595,11.033342997603301],[-74.867656987716501,11.033284128840499],[-74.867610122487207,11.033175515049001],[-74.867646826317596,11.033019592424401],[-74.867684116833203,11.032977850077099],[-74.867792431669699,11.0330255838062],[-74.867987450191706,11.0330493955687],[-74.867986914335503,11.033049775066701],[-74.868061306723604,11.0330584408646],[-74.8680610740562,11.033057691720201],[-74.869752429408706,11.033289442221999],[-74.8706711901783,11.0333785601541],[-74.870898207109207,11.033426031706901],[-74.871231356550794,11.0334868625289],[-74.871915015000894,11.0337731485016],[-74.872352878862898,11.033739411982801],[-74.872720511014904,11.033236093991301],[-74.873277859410805,11.033153508361901],[-74.873228939741495,11.0332386043469],[-74.873183584683701,11.033317500948099],[-74.8730769436592,11.0335030048329],[-74.8729989019984,11.0336387603303],[-74.8729942873845,11.0336464031493],[-74.872983107789096,11.033664921997],[-74.872751701316204,11.034048232728299],[-74.872737111908805,11.034072399267099],[-74.872725607059905,11.034091455472099],[-74.872544273949501,11.0343589707678],[-74.872511824833694,11.0344287688546],[-74.872483104053202,11.034500144521401],[-74.8724581890948,11.0345729019591],[-74.872362846019598,11.034842225095799],[-74.8722627118009,11.0351098469913],[-74.872130193054602,11.0354394478878],[-74.872105988979897,11.0355052277901],[-74.872066081561201,11.0356072075207],[-74.871966912095402,11.035893095915201],[-74.871718233231604,11.036510351372799],[-74.871618659308893,11.0367490752277],[-74.871586385689994,11.0368366762556],[-74.8711651865666,11.0378584864467],[-74.871115523700496,11.037966492153799],[-74.871099873383599,11.0380027124375],[-74.871081793781499,11.038037811013],[-74.871022357821502,11.038151584203],[-74.870969441784297,11.0382684559653],[-74.870923209980205,11.0383880626585],[-74.870883807439697,11.038510031716999],[-74.870851356264097,11.0386339834818],[-74.870831576891206,11.038767871289],[-74.870806149898598,11.038900825473601],[-74.870775119581793,11.039032614258],[-74.870738540305595,11.039163005802401],[-74.870696476538598,11.0392917736299],[-74.870658960498901,11.039404196885201],[-74.870644439266798,11.039461604512599],[-74.870638392549196,11.039508247320899],[-74.870635697045998,11.039558918927201],[-74.870639202202796,11.039644956884899],[-74.870647962289794,11.0397306286846],[-74.870661945122706,11.0398156216326],[-74.870681099305699,11.039899624962301],[-74.870705354242503,11.0399823316426],[-74.870734622888094,11.0400634392655],[-74.870769195018795,11.040147075119901],[-74.870810418862604,11.0402277154832],[-74.870858029359397,11.0403048465329],[-74.870911724043296,11.040377974572699],[-74.870971158505398,11.040446632390299],[-74.871026706029596,11.0404960496912],[-74.871077247631405,11.0405504589624],[-74.871122326136998,11.0406093665654],[-74.871161531730806,11.040672240588499],[-74.871245089385098,11.0408552104852],[-74.871283840493902,11.0409401180946],[-74.871308061548504,11.0410094799867],[-74.871349639659798,11.0411486042949],[-74.871368684213707,11.0412195825255],[-74.871394509588299,11.041288437115201],[-74.871426879275205,11.0413545374108],[-74.871465496515398,11.0414172793565],[-74.871524829461407,11.041503379966301],[-74.8715575259628,11.0415787202661],[-74.871586592471303,11.0416696090989],[-74.871647302006394,11.0418586821619],[-74.870646738892205,11.0436788345907],[-74.872193790390995,11.0458431966536],[-74.872168147748397,11.045843137356799],[-74.872071470721096,11.0457117767944],[-74.871962720287897,11.0456041277131],[-74.871877695395497,11.045747504719101],[-74.871804572877906,11.0459383892461],[-74.871622615073505,11.046057802005601],[-74.871646594411501,11.0462014298891],[-74.871815484058999,11.046405310843101],[-74.871948382746695,11.046584235626201],[-74.872056648513194,11.0468965039368],[-74.871959039641993,11.047158553621999],[-74.871765121388805,11.0472541975364],[-74.871571516230901,11.0472175741761],[-74.871281460661507,11.046953497436199],[-74.871003222139393,11.0467742348402]]]}},
{"type":"Feature","properties":{"OBJECTID_1":15,"OBJECTID":207,"HECTARES":126.514,"SIM_ZONFIN":"ZEE","Shape_Leng":16169.7105875,"AREA_HAS":126.618483664,"Shape__Area":795560.7978515625,"Shape__Length":8584.2649006128213},"geometry":{"type":"Polygon","coordinates":[[[-74.8419690427163,11.0319878685423],[-74.842167857075097,11.031933474656601],[-74.842255833341397,11.0319094055988],[-74.842282226658398,11.031902255592399],[-74.842764917652303,11.031771493086501],[-74.842769163463103,11.0317703431884],[-74.843129775596296,11.0316726512985],[-74.8434711177363,11.031580179358301],[-74.843498121442295,11.0315728645714],[-74.845056016182994,11.031150814246701],[-74.848375917392005,11.0302957504659],[-74.8497518576728,11.0298927105712],[-74.850762530609003,11.029737929041501],[-74.851542374699207,11.029688374285801],[-74.852572927421093,11.029771356737299],[-74.853420698710806,11.029921392006299],[-74.855694649199606,11.030467304512401],[-74.856257734528498,11.030607852895001],[-74.856258160886497,11.030607964227199],[-74.856431218542994,11.0306511604436],[-74.856898988553397,11.0307679183004],[-74.858680278177602,11.031212532121801],[-74.858623571405602,11.031479087295599],[-74.858428595093699,11.031896912851099],[-74.858205615737802,11.032182404177499],[-74.858212048443093,11.0322434657967],[-74.858187037834199,11.0325305535043],[-74.858225541775099,11.032579256258099],[-74.858271746059899,11.032638150448401],[-74.858477499270805,11.0326148944695],[-74.858768049224295,11.0326630601154],[-74.858901191649593,11.032735725259901],[-74.858967476634902,11.032890758784299],[-74.858761436808294,11.032914015069901],[-74.858579539042907,11.033009679149901],[-74.858470193415897,11.033152994153401],[-74.8584397508275,11.0331671281812],[-74.858264264789199,11.033248602028801],[-74.858051869470401,11.033415415566701],[-74.8578090035722,11.033642072744099],[-74.857663324376901,11.0337853029],[-74.8575412981928,11.034203298550199],[-74.857394604097706,11.034765940860099],[-74.857429926706899,11.0351843082224],[-74.857562264145699,11.035471767606801],[-74.857476887273094,11.035758712813299],[-74.857355727368201,11.035818343144401],[-74.857101537346693,11.0357578267681],[-74.856992709043098,11.035686348498301],[-74.8567878236166,11.035231404518999],[-74.856546058584897,11.035002473612799],[-74.856352490777098,11.0349545356299],[-74.856171084415095,11.0348467096088],[-74.856219578022007,11.0347869074344],[-74.856328753767599,11.034714813569099],[-74.856317025124895,11.0345960834309],[-74.856159736772,11.034570841069099],[-74.856014284826401,11.0346191086259],[-74.855820316923598,11.034618650292501],[-74.855529883714993,11.0345218706199],[-74.855275897714407,11.0343776972733],[-74.855058189840605,11.0342573482387],[-74.854806733303406,11.034132398307801],[-74.854598710201699,11.034029030560699],[-74.854126987758306,11.0337769428327],[-74.853558254794706,11.033535929782399],[-74.853146573870404,11.0335349523051],[-74.852734285474497,11.0336662419276],[-74.852589101490594,11.033722421726701],[-74.852492023925095,11.0337606287471],[-74.852316335450894,11.0337726462324],[-74.851904019052299,11.0339152399029],[-74.8516495700365,11.0339621162172],[-74.851347004799507,11.0339139159019],[-74.851140848174396,11.0339846465283],[-74.8510196863228,11.0340442744247],[-74.850943131940198,11.034113052737901],[-74.850752753610294,11.034283303936601],[-74.850498186225593,11.0343787900173],[-74.850170662571003,11.0345928049913],[-74.849636507716298,11.035070862655299],[-74.849297348252506,11.0351288395428],[-74.849127840705904,11.0350696493285],[-74.848933427130007,11.0353676370136],[-74.848750443700098,11.0359053166296],[-74.848711394562102,11.036339963741099],[-74.848688094362799,11.0365992934539],[-74.848734835261894,11.037257353911899],[-74.848788452357297,11.0376768974395],[-74.8490407386426,11.0385151972431],[-74.849028050422305,11.0387898780874],[-74.848870004112598,11.0389568140632],[-74.848779499185397,11.0389542521854],[-74.848434025924306,11.0389444685943],[-74.848276821738807,11.038884176719099],[-74.848156449150096,11.038620483373901],[-74.848048328616002,11.038260726883101],[-74.847964003708796,11.037997119050299],[-74.847964441180594,11.037818502046401],[-74.847867861717305,11.0377696593713],[-74.847722349640406,11.0378416630977],[-74.847613085428904,11.0379487991588],[-74.847503937163793,11.038008454885301],[-74.847431417011904,11.0379483647362],[-74.847382955297405,11.037877027249399],[-74.847225577272795,11.0378879556249],[-74.846995354227005,11.0379710617493],[-74.846910032910998,11.0381144306306],[-74.846752477028005,11.038197710147699],[-74.846679515728994,11.038317368251001],[-74.846557704762304,11.038640398798],[-74.846422654700206,11.039345505661901],[-74.846202094297496,11.0403861654229],[-74.846055464490405,11.0409126253479],[-74.845928803408498,11.0409743173248],[-74.845909953412402,11.0409834980883],[-74.8458901334008,11.0409815986786],[-74.845788963221196,11.0409719026198],[-74.8456801378655,11.040899290656],[-74.845619927464398,11.0407193973271],[-74.845595990505103,11.040564460998899],[-74.845511484162401,11.0404919068799],[-74.845438727137207,11.0405279083321],[-74.845329461127903,11.0406350438441],[-74.845232180825207,11.0407546419969],[-74.845196689999895,11.0407591203787],[-74.845135450020393,11.0407668466614],[-74.845099526599498,11.040599445777101],[-74.845051450038198,11.040372100855601],[-74.845118847266306,11.040072681264901],[-74.845215921186096,11.040036737889199],[-74.8453980915572,11.039833686057399],[-74.845421314970494,11.039815197616001],[-74.845652929535902,11.039630807951999],[-74.845847172193899,11.039404042451901],[-74.846005023968004,11.0392009324359],[-74.846029810600996,11.0390099367633],[-74.846066614211097,11.0388189709217],[-74.845909262865206,11.0388185945045],[-74.845836420358495,11.038889641711201],[-74.845751304373096,11.0389493538843],[-74.845684356229796,11.038930412179999],[-74.845666678303999,11.038925410511499],[-74.845618534571202,11.0388416381409],[-74.845630755903997,11.038758009677901],[-74.845799402964502,11.0385434322972],[-74.845837389661398,11.0384950998354],[-74.845934500654394,11.038328019402501],[-74.846044383331005,11.0379687839364],[-74.846178349791103,11.037705699305899],[-74.846279207069301,11.0374424701481],[-74.846324622172503,11.037323942283599],[-74.846507406519294,11.036869919800701],[-74.846616906270398,11.0366666921391],[-74.846633025879498,11.0366630272063],[-74.846774344362103,11.0366308931454],[-74.846919825885394,11.0365713254449],[-74.8469565117868,11.036427839939],[-74.846956746185597,11.0363317479679],[-74.847005468013094,11.036296819837],[-74.847102372783993,11.036213393875499],[-74.847042300313504,11.0360934175857],[-74.846908835919294,11.036153015119099],[-74.846847862791293,11.036284007202999],[-74.846762828275402,11.0364273760523],[-74.846723795361299,11.036459401884599],[-74.846617199331106,11.0365468604342],[-74.846544443377098,11.0365828619829],[-74.846527243831503,11.036247062700101],[-74.846673516232698,11.0358653047536],[-74.846806813248804,11.0357570965223],[-74.8468314216789,11.03563845315],[-74.846868049947503,11.0355187082728],[-74.846989331734804,11.0354104710678],[-74.8470386108838,11.0351483132767],[-74.847184500739004,11.0349214326616],[-74.8472461573961,11.0343947675115],[-74.847295437470606,11.034131480220699],[-74.847404673329393,11.0340356495526],[-74.847537703742503,11.0340359668298],[-74.847695219833795,11.0340849554145],[-74.847937309253496,11.0340617930615],[-74.848022396170094,11.034013385644499],[-74.848095383374599,11.033882422354001],[-74.848168606497893,11.0336553671199],[-74.848216627404994,11.0335559984893],[-74.848290239032906,11.033403556446499],[-74.848702707364396,11.0330823495835],[-74.8487881153724,11.0329028053245],[-74.848703879955494,11.0326030222706],[-74.848575340452498,11.032337416112499],[-74.848559278129002,11.0323042251394],[-74.848511399432596,11.032111925727699],[-74.848281911686399,11.0318965834074],[-74.848039859478504,11.031788608031899],[-74.847870358015001,11.0317282863251],[-74.847737621591605,11.031608136453301],[-74.847592405253494,11.0315603079819],[-74.847398439394397,11.0315598439203],[-74.847107602256798,11.031630369971699],[-74.846829092741899,11.0316896196874],[-74.846683583084896,11.031761623404099],[-74.846149961031401,11.0320226199307],[-74.845531595272007,11.032308284533499],[-74.844973905885098,11.032582788172901],[-74.844476816432405,11.0327613440648],[-74.844161629257997,11.0328442440795],[-74.8439317344328,11.0327950790511],[-74.843653439590497,11.032650838392099],[-74.843448124241803,11.0324954660895],[-74.843169888747894,11.032327482419401],[-74.843000328596204,11.0322908985521],[-74.842818398846305,11.0323978581372],[-74.842666793225803,11.032504890028999],[-74.842375685771103,11.0326839378393],[-74.842096565362993,11.032874320590199],[-74.841878240587803,11.0330060624628],[-74.841575384022207,11.033076553595301],[-74.841296763643498,11.033064576452301],[-74.841091214579706,11.033004165181399],[-74.840897188940801,11.0330274368959],[-74.840775759640493,11.0331944575116],[-74.840618174212594,11.033290169272799],[-74.840460571260493,11.0332773530026],[-74.840303371231997,11.0332170571216],[-74.840024452791795,11.033324910985399],[-74.839830564351004,11.0334080991239],[-74.839745558258301,11.0335390317743],[-74.839683381411703,11.033618887827499],[-74.839587419332105,11.0337421387233],[-74.839441879708303,11.033825443630001],[-74.839381217468102,11.0339451296097],[-74.839126471175007,11.0341118270064],[-74.838907907972398,11.034338528165801],[-74.838822404260398,11.0345542460408],[-74.838712840918205,11.0347812114611],[-74.8385299880823,11.035258969011799],[-74.838494159379806,11.0350553920837],[-74.838437967400296,11.034948540656201],[-74.838349508061199,11.0347803311804],[-74.838204444033707,11.0346714525589],[-74.837974723710701,11.0345521940108],[-74.837647457417006,11.0346587974788],[-74.837368748084003,11.034681861929],[-74.837296258220405,11.034610465529299],[-74.837369105277602,11.034538289771699],[-74.837332541181397,11.034526132226],[-74.837594037386793,11.034462357283299],[-74.837819276981406,11.034374504661701],[-74.838013954519496,11.034250609115499],[-74.838241969674002,11.034057402556501],[-74.838482063903996,11.033822026180699],[-74.838779836012904,11.0335052367037],[-74.839101897595299,11.033155277210501],[-74.839331236875196,11.032972694178399],[-74.839552296000093,11.032810419994901],[-74.839850363779902,11.032638439445201],[-74.840090754592595,11.032504655886401],[-74.840350501845194,11.032408873713701],[-74.840783601447598,11.032322167495799],[-74.841062631647006,11.032235848935599],[-74.841351948775099,11.0321566967969],[-74.841422726533395,11.0321373327854],[-74.841593418317402,11.0320906341486],[-74.841824398552802,11.032027441208401],[-74.841880776701899,11.0320120170572],[-74.841904810036695,11.032005441204699],[-74.841921103985001,11.0320009842084],[-74.8419690427163,11.0319878685423]]]}},
{"type":"Feature","properties":{"OBJECTID_1":16,"OBJECTID":207,"HECTARES":126.514,"SIM_ZONFIN":"ZEE","Shape_Leng":16169.7105875,"AREA_HAS":126.618483664,"Shape__Area":52778.822265625,"Shape__Length":2459.4163498218277},"geometry":{"type":"Polygon","coordinates":[[[-74.8305889981023,11.0409463836203],[-74.830734484327195,11.040886823767901],[-74.830936450804998,11.0408941012955],[-74.831049265341505,11.0409712501072],[-74.831060980678004,11.041091112301901],[-74.831193819747199,11.0412836209566],[-74.831532663804893,11.0413556710068],[-74.831799332599701,11.041345017902],[-74.832235582552897,11.0412499917243],[-74.832417583901403,11.041118167660301],[-74.832490880241096,11.040867376920801],[-74.832672878184795,11.040736683184999],[-74.832854848138993,11.040617294542701],[-74.833012739522403,11.040401755091199],[-74.833388871675396,11.0400917863074],[-74.833655957133004,11.0399138185825],[-74.833813698539302,11.039758194204699],[-74.833911461384403,11.0394475459932],[-74.833851466812007,11.039183994788001],[-74.833731256906404,11.038860379200401],[-74.833611119507907,11.038393191935301],[-74.833575740450698,11.0380109974069],[-74.833569654873301,11.0379946523484],[-74.833419438173706,11.0375912022979],[-74.833299076464698,11.037328633038699],[-74.8331904347463,11.0371847952864],[-74.833032829375597,11.037171975433401],[-74.832718070213403,11.037194947642901],[-74.832500008154696,11.037218155571001],[-74.832403141980194,11.037170438770101],[-74.832391395608497,11.0370630131775],[-74.832549045901601,11.0369435641718],[-74.832670270732805,11.036860203916],[-74.832755539688705,11.0367405787844],[-74.832658795164704,11.036644250927599],[-74.832429046863595,11.036536293256001],[-74.832320465582598,11.036368714266199],[-74.832393731788997,11.0361292279418],[-74.832360958083598,11.0360979754706],[-74.833477318797193,11.0354779691493],[-74.834784738414896,11.0347494756427],[-74.834817005915596,11.0351809954354],[-74.834890287497501,11.035393707000299],[-74.834878090803201,11.0354660294393],[-74.834815496108305,11.0354421364659],[-74.834609481360005,11.0354540708047],[-74.834451834905394,11.035572389306999],[-74.834235360966503,11.035762915579101],[-74.834247423118299,11.0358590377132],[-74.834124639728202,11.0361085781974],[-74.834076906077996,11.036205684621301],[-74.833821436775807,11.0366595222435],[-74.833771861507103,11.0371500370312],[-74.833746290595201,11.037651914950301],[-74.833751688873406,11.037710927657001],[-74.833793355922793,11.0381664060841],[-74.833841034920695,11.038549760456201],[-74.834009295103101,11.0389933253335],[-74.8341052675773,11.039399406729],[-74.8340564376674,11.039591473381799],[-74.833970931422996,11.039806058395399],[-74.833703802061905,11.040116293643999],[-74.833424697212195,11.0402953624387],[-74.833182331076699,11.040427039720401],[-74.833096882702705,11.0406178856423],[-74.832951069275893,11.04080858337],[-74.832684296933195,11.040975246459499],[-74.832550346111105,11.0412270202297],[-74.832295648132899,11.0413699708243],[-74.831932128712097,11.041440304719],[-74.831375070665501,11.041451378179501],[-74.8311328981776,11.041390869404299],[-74.830939690916907,11.0411993425814],[-74.830709866053496,11.041006596425801],[-74.8305889981023,11.0409463836203]]]}}
]
}
