{
"type": "FeatureCollection",
"name": "ZRA",
"crs": { "type": "name", "properties": { "name": "urn:ogc:def:crs:OGC:1.3:CRS84" } },
"features": [
{"type":"Feature","properties":{"OBJECTID_1":1,"OBJECTID":49,"HECTARES":57.745,"SIM_ZONFIN":"ZRA","Shape_Leng":4554.3077470300004,"AREA_HAS":57.7924093787,"Shape__Area":603505.6318359375,"Shape__Length":4654.7634781733223},"geometry":{"type":"Polygon","coordinates":[[[-74.859167191947193,11.000749830864301],[-74.859116762633406,11.0014040672503],[-74.857868166984503,11.003067854346201],[-74.8574675615084,11.0040249322685],[-74.857559338536007,11.004722215566201],[-74.857827553910695,11.0051347419016],[-74.858184047162794,11.0056492131929],[-74.858198308875004,11.0060276834951],[-74.858019042491406,11.0066971159905],[-74.858463578301198,11.0071059931485],[-74.857977516036698,11.007976227173399],[-74.857088034663207,11.0081140732213],[-74.856585755163394,11.0083407099744],[-74.8565383471947,11.0082971006261],[-74.856443726646305,11.0079993923244],[-74.855781746372401,11.0081690980057],[-74.855458252079998,11.0078715329518],[-74.855150940145904,11.007352239723399],[-74.853187956519506,11.006304322837501],[-74.852709451848398,11.00628444666],[-74.852587503452199,11.0065108476995],[-74.853408685265507,11.0070720007592],[-74.854207793339398,11.007446927232699],[-74.854972321388203,11.007982147935399],[-74.855122572688003,11.0085542176475],[-74.853882806549294,11.0086491345629],[-74.853436797916004,11.0088023900698],[-74.852864530719799,11.008435369567399],[-74.852825769178295,11.0083794297281],[-74.852511451628502,11.007925807039999],[-74.851985108251199,11.0069731760154],[-74.851339395465402,11.0062813134604],[-74.850780925346996,11.0057676158366],[-74.850914097676906,11.005063026592399],[-74.851498806864498,11.0046675610153],[-74.851784519545106,11.004792523478301],[-74.851894543923095,11.0058377905867],[-74.852305315873593,11.005854852009801],[-74.852627476588793,11.005705571919],[-74.852517609928896,11.0053935017563],[-74.852391673762497,11.004733185051499],[-74.8519376441768,11.0045201712715],[-74.851791652034805,11.004212612834699],[-74.851744245409094,11.004169002504501],[-74.852501419061696,11.0029538082981],[-74.8527123116788,11.0020476836653],[-74.852756891341997,11.001819966874701],[-74.852848430882503,11.0018201844477],[-74.852936224392295,11.001494545538],[-74.8534859494128,11.0003621971649],[-74.853700997147698,10.999314109453501],[-74.853750802685497,10.999071366238301],[-74.854072630091295,10.9991670999514],[-74.854227430088599,10.9993815725801],[-74.854229569581406,10.999382374315999],[-74.855100651409202,10.999708961490899],[-74.855967756504896,11.0002465307386],[-74.856971372459896,11.0002924587631],[-74.857569446163893,11.0004261667895],[-74.857933593778796,11.000525552909499],[-74.858444888521106,11.0001318821237],[-74.858997406315595,11.000177050149601],[-74.859118126722194,11.0007078569709],[-74.859167191947193,11.000749830864301]]]}},
{"type":"Feature","properties":{"OBJECTID_1":2,"OBJECTID":142,"HECTARES":28.281,"SIM_ZONFIN":"ZRA","Shape_Leng":4065.0161233,"AREA_HAS":28.304186717499999,"Shape__Area":225650.298828125,"Shape__Length":2455.7905374319607},"geometry":{"type":"Polygon","coordinates":[[[-74.858589018316195,11.0093585848935],[-74.858677089183004,11.009293169006799],[-74.859423466958503,11.009161526275401],[-74.859464997178193,11.009184127617001],[-74.859585423563303,11.009249667378599],[-74.8598302919942,11.009382929569],[-74.859948284300401,11.0094465153743],[-74.860116870058107,11.0098832840421],[-74.860302255625697,11.010352876655499],[-74.860707509882005,11.0109902999762],[-74.860841374439204,11.0117107433336],[-74.861062435098106,11.012059241765501],[-74.861128643563703,11.012163616210501],[-74.861185949277399,11.012209386740301],[-74.860920350217299,11.012693943085299],[-74.860591060620806,11.0129588297649],[-74.860545006443402,11.012995877114101],[-74.859862833544994,11.0134316728718],[-74.858124025487697,11.014235087685201],[-74.857698623641994,11.0146832371599],[-74.857620402917604,11.0148694765354],[-74.857552452708504,11.015031262665],[-74.85699554832,11.0158705076307],[-74.856568598485396,11.016509053562601],[-74.856502080017094,11.016918895337],[-74.856480210375494,11.016918454926],[-74.856094233978496,11.016966911579701],[-74.855621868614904,11.0170275772744],[-74.855510455203003,11.0170415766401],[-74.855587389342304,11.0168904682481],[-74.855662700219099,11.0163424569753],[-74.855744138858995,11.0161943116091],[-74.855948980470799,11.015821683804299],[-74.856058802422496,11.015621901798101],[-74.856164299136296,11.015429993006601],[-74.856776912689597,11.014499516271799],[-74.856823943543404,11.0144202986591],[-74.8570564285003,11.014407159581699],[-74.857170452926894,11.0142328398472],[-74.856865168333698,11.0137274279772],[-74.856417151353099,11.0122890684576],[-74.856533544966993,11.0122703731956],[-74.857145026469098,11.0118524008367],[-74.857219256132197,11.0117160908625],[-74.857536675008305,11.0111331971161],[-74.857775889996702,11.0103966751838],[-74.857980699070396,11.0098104281668],[-74.858589018316195,11.0093585848935]]]}},
{"type":"Feature","properties":{"OBJECTID_1":3,"OBJECTID":143,"HECTARES":84.914,"SIM_ZONFIN":"ZRA","Shape_Leng":10821.8577558,"AREA_HAS":84.984210208700006,"Shape__Area":870.0126953125,"Shape__Length":209.16050788355034},"geometry":{"type":"Polygon","coordinates":[[[-74.882064755502896,10.9796668726181],[-74.882207967569201,10.9794012127924],[-74.882229680320606,10.979428367820001],[-74.882235332406495,10.9794774367952],[-74.882224419310205,10.9795238229466],[-74.882205218182804,10.9795675040231],[-74.882191537601798,10.9796111708532],[-74.882161290904094,10.979652153959099],[-74.882131036995602,10.9796904106189],[-74.882128292045806,10.979695871529],[-74.882109069282507,10.9797313723654],[-74.882087100643005,10.979772333212599],[-74.882059606076595,10.979810582751799],[-74.882032111503506,10.9798488322896],[-74.882021198370396,10.9798952184402],[-74.881996463149406,10.9799334608604],[-74.881960674226605,10.979966277960701],[-74.881933179622493,10.980004526589401],[-74.881889074747804,10.9800237319137],[-74.881842172650195,10.9800293094215],[-74.881792525590996,10.980040347831],[-74.881751187264001,10.980062272468199],[-74.881707089564699,10.9800842042144],[-74.881681989074593,10.980103798421],[-74.882064755502896,10.9796668726181]]]}},
{"type":"Feature","properties":{"OBJECTID_1":4,"OBJECTID":143,"HECTARES":84.914,"SIM_ZONFIN":"ZRA","Shape_Leng":10821.8577558,"AREA_HAS":84.984210208700006,"Shape__Area":1173.5,"Shape__Length":183.0509957157675},"geometry":{"type":"Polygon","coordinates":[[[-74.881171057959904,10.9808736940304],[-74.881171051673505,10.980870966674701],[-74.881136305733193,10.980871088315601],[-74.881107437045102,10.9808247536554],[-74.881085784624901,10.980781980767601],[-74.881060524391202,10.980739210283],[-74.881031656322804,10.980696438583401],[-74.880984752125997,10.980671493766],[-74.880934244938402,10.9806643716209],[-74.880885578825101,10.9806746840113],[-74.881314204850199,10.9804268421539],[-74.881327238792096,10.980456065696],[-74.8813687104698,10.980483225238],[-74.881410165923299,10.9805049309892],[-74.881443379272895,10.9805402921052],[-74.881468321728704,10.9805784028072],[-74.881446353876797,10.9806193654338],[-74.881405015442894,10.980641290040699],[-74.881358120425205,10.9806495939367],[-74.881311204722707,10.9806497175794],[-74.881264279992095,10.9806471147804],[-74.881217385886799,10.9806554195542],[-74.881187130839606,10.9806936752561],[-74.881184503794699,10.9807427674154],[-74.881192908859305,10.9807891019646],[-74.881195793356397,10.980835451649099],[-74.881171057959904,10.9808736940304]]]}},
{"type":"Feature","properties":{"OBJECTID_1":5,"OBJECTID":143,"HECTARES":84.914,"SIM_ZONFIN":"ZRA","Shape_Leng":10821.8577558,"AREA_HAS":84.984210208700006,"Shape__Area":48754.533203125,"Shape__Length":1092.2082217916102},"geometry":{"type":"Polygon","coordinates":[[[-74.877158977942301,10.9977593274812],[-74.877238287405305,10.9975113026958],[-74.878121059177701,10.998133972991701],[-74.878188641065805,10.998265222672],[-74.878630644683398,10.9988934862298],[-74.879004246591606,10.999786764414401],[-74.879211955692796,11.001559686775099],[-74.878907709960203,11.001576902216399],[-74.877991549270803,11.000534231930599],[-74.877708477167602,10.9995096404572],[-74.877441143510893,10.998930611956499],[-74.877071416149406,10.9982546758502],[-74.877158977942301,10.9977593274812]]]}},
{"type":"Feature","properties":{"OBJECTID_1":6,"OBJECTID":143,"HECTARES":84.914,"SIM_ZONFIN":"ZRA","Shape_Leng":10821.8577558,"AREA_HAS":84.984210208700006,"Shape__Area":392400.6181640625,"Shape__Length":8931.7741472097441},"geometry":{"type":"Polygon","coordinates":[[[-74.874108517860293,10.9972236969056],[-74.874109753540793,10.996700109438301],[-74.874594036266302,10.9971090723269],[-74.874872027484003,10.9971260847375],[-74.874920266075307,10.9971688702918],[-74.875200029408205,10.9970884527926],[-74.875329093143094,10.9966880668646],[-74.874725779537499,10.995676630677201],[-74.874793005963298,10.9950397520706],[-74.875184056325494,10.994182110499001],[-74.875336614396005,10.993494074981299],[-74.875246730845603,10.992602394886701],[-74.875275371736706,10.992331140211199],[-74.8752357138261,10.9919378188215],[-74.874944398140002,10.991166326542601],[-74.874060831788597,10.9910663682637],[-74.873631199129903,10.990905733569999],[-74.873798515065502,10.989437841245],[-74.873884072854906,10.988391247029501],[-74.873568347082099,10.988212184308701],[-74.873644400171997,10.987622600040799],[-74.873998200126294,10.9871881547648],[-74.874211646091794,10.987128383957501],[-74.874443975656007,10.987087060343599],[-74.8750026752124,10.986937366935701],[-74.875459348024407,10.986772855166301],[-74.876043199742398,10.986323243107201],[-74.876435858779203,10.9852601750919],[-74.876921126333798,10.9846508665928],[-74.877345721715201,10.9838989623735],[-74.877515778418001,10.9831672357762],[-74.878125382173707,10.9829001383573],[-74.878592855320406,10.982643830489],[-74.878956504028096,10.9818435834481],[-74.879586497316296,10.9813987957831],[-74.880408053557304,10.980950798712501],[-74.880568088057103,10.980858262990701],[-74.880551864340006,10.9808783068742],[-74.880530225418397,10.980921085989801],[-74.880504979248201,10.9809674295736],[-74.880476122531107,10.981003080311799],[-74.8804400519642,10.981038732218201],[-74.880450876072103,10.9810422952282],[-74.880432844043099,10.981085072851499],[-74.880407595742398,10.981124287777501],[-74.880382348350594,10.9811635026968],[-74.880375140420597,10.9812098433303],[-74.880360716816199,10.9812561860484],[-74.880342685368305,10.9813025293563],[-74.880324654222704,10.9813453060677],[-74.8802958001571,10.981391651138299],[-74.880277767176295,10.981434428764301],[-74.880248912818999,10.981473644262801],[-74.880216448179397,10.9815092946733],[-74.880194809174796,10.981552073779],[-74.880189040764506,10.9816004212234],[-74.880144311298395,10.9816126805928],[-74.880097418867706,10.981659027683801],[-74.8800685620362,10.9816946774966],[-74.880032490159607,10.981723200714301],[-74.879985593543793,10.9817445952191],[-74.879938698428703,10.9817695544948],[-74.879891800881893,10.981790948993099],[-74.879844903063898,10.981805214817999],[-74.879798005563998,10.981815915847699],[-74.879751105371398,10.981815922527099],[-74.879704205177404,10.9818159291992],[-74.879657305903294,10.9818159367627],[-74.879610405706899,10.981815943420299],[-74.879559898250093,10.981819515435999],[-74.879514735627396,10.981805707969199],[-74.8794697095516,10.9818373520463],[-74.8794228122768,10.981855181690101],[-74.879383131872501,10.981880140640101],[-74.879347058970097,10.9819086619878],[-74.879314595423097,10.981940749340099],[-74.879282131198593,10.9819799644608],[-74.879264099876295,10.9820227429481],[-74.879242460692296,10.982065521109201],[-74.879231645314803,10.9821154271085],[-74.879231651998694,10.9821617674985],[-74.879231658677995,10.9822081069841],[-74.879238881071998,10.982254446216499],[-74.879260533391701,10.982297219257999],[-74.879296615372198,10.982329294722801],[-74.8793399121665,10.982361370835999],[-74.879372387222801,10.982393446863499],[-74.879401254952398,10.982439782613399],[-74.879412085822906,10.982489685133899],[-74.879390446317998,10.982536029],[-74.879368807134597,10.9825788080761],[-74.879332734157003,10.982607329435099],[-74.879303878075007,10.982642981006499],[-74.879271413528997,10.9826750665639],[-74.879231733591496,10.9827035893928],[-74.879224525480495,10.982749930030399],[-74.879224526067006,10.9827534948143],[-74.879123523917897,10.9828461899708],[-74.879080236996302,10.9828747133586],[-74.879029731088096,10.9828889787654],[-74.878982830711493,10.9828889862584],[-74.8789323224659,10.982888993416401],[-74.878881816299497,10.9828961301296],[-74.878831309790499,10.9829068307208],[-74.878788020753007,10.982928225413399],[-74.878744731702795,10.982949619196599],[-74.8787158760897,10.9829888346093],[-74.878697843722506,10.983031612185201],[-74.878654554990405,10.9830494420726],[-74.878607656312397,10.983060142963],[-74.878560755892096,10.9830601494912],[-74.878510247611104,10.9830601574882],[-74.878459742544706,10.9830744228041],[-74.878427277852893,10.9831065082933],[-74.878409246020198,10.9831528515495],[-74.878383998780805,10.983195630251201],[-74.8783767911182,10.983245536580901],[-74.8783695828714,10.9832918772209],[-74.878355157970603,10.9833382190075],[-74.878326302847796,10.983380999182501],[-74.878297447140397,10.983420214570399],[-74.878268590843504,10.9834558642668],[-74.878243343569295,10.983498643867801],[-74.878210879963504,10.9835378589162],[-74.878178415203806,10.983569945294899],[-74.878138734456797,10.983594903230699],[-74.878099053702599,10.983619861162399],[-74.878052156626396,10.9836412563431],[-74.878016084299205,10.983669777580401],[-74.877983618587706,10.9837018639496],[-74.877947546825098,10.983733950871599],[-74.877900649138894,10.983751780342899],[-74.877850144148795,10.983773176064],[-74.877803245082902,10.983776747274799],[-74.877752736652994,10.983776754261701],[-74.877702229707396,10.9837803260213],[-74.877666156415401,10.983808848135199],[-74.877637300578201,10.9838480634806],[-74.8776156612698,10.9838979702568],[-74.877630099258994,10.9839443084315],[-74.877655358838496,10.983983516250801],[-74.8776806189843,10.984026287044999],[-74.877680626391495,10.984072627463799],[-74.877651769045301,10.984108277128501],[-74.8776048676458,10.9840975900745],[-74.877557968743403,10.9841082908359],[-74.877529112298603,10.984143941390499],[-74.877529112867705,10.9841475061775],[-74.877518297744103,10.9842009769564],[-74.877511088446596,10.984247317604799],[-74.877503880069,10.9842936591519],[-74.877485848036301,10.984340001481399],[-74.877467818051898,10.9843934733791],[-74.877453393893802,10.9844398151461],[-74.877438968822901,10.984486157823],[-74.877428152543203,10.9845324990281],[-74.8774137283756,10.984578840795001],[-74.877406519982998,10.9846251823427],[-74.877395704265197,10.984675088335001],[-74.877388495864196,10.984721428978601],[-74.877370462888194,10.9847677722172],[-74.877352431163999,10.9848105497527],[-74.877327183094494,10.984849764527601],[-74.877301935018806,10.984888979301299],[-74.877276686016103,10.9849281931753],[-74.877247831733598,10.9849781019653],[-74.877226191176007,10.9850208800641],[-74.877200943641796,10.985063659621099],[-74.877182911532302,10.9851100019459],[-74.877164879766696,10.9851527794772],[-74.877143239193401,10.985195558478001],[-74.877121598614707,10.9852383374781],[-74.877074700069102,10.985252602079999],[-74.877027800177601,10.985252608423099],[-74.8769808985965,10.985241921299799],[-74.876933997794893,10.9852419285381],[-74.876887099022795,10.985249063531001],[-74.876836590322398,10.9852490713112],[-74.876789691754098,10.9852633358717],[-74.876746403114893,10.985284729441499],[-74.876695897199895,10.9853025593328],[-74.876652606721706,10.9853239538067],[-74.876612925597399,10.9853489106961],[-74.8765732444717,10.9853738684857],[-74.8765371718018,10.9854023914111],[-74.876501098955003,10.985441605998099],[-74.876493891536697,10.985495077126],[-74.8764938978765,10.985541416672501],[-74.876486689332907,10.9855877573188],[-74.876468656533007,10.9856305357388],[-74.876421759556607,10.9856554946216],[-74.876385687392101,10.985687581421301],[-74.876367655125705,10.9857339237231],[-74.876371262670702,10.985737487966],[-74.876331585367296,10.985787397449799],[-74.876367666115598,10.985815910262801],[-74.876378497069794,10.9858622481501],[-74.876378503406897,10.985908588602801],[-74.876378510298494,10.985958492939901],[-74.8763785166324,10.986004832488],[-74.876378523888604,10.9860511729346],[-74.876380415407198,10.9861070359041],[-74.876356890803905,10.9861545506159],[-74.876320819132403,10.9861902013026],[-74.876291962359005,10.986225851793],[-74.876259499891304,10.9862757601807],[-74.876234250654903,10.9863149749111],[-74.876216217783906,10.986357752423199],[-74.876198185829494,10.986400530833601],[-74.876176545954095,10.9864433088903],[-74.876162120623206,10.9864896506454],[-74.8761621269431,10.9865359911018],[-74.876162133264202,10.9865823315581],[-74.876151316750594,10.986628671852801],[-74.876133285333694,10.9866750150521],[-74.876104429048794,10.9867142294201],[-74.876064746796501,10.9867391880881],[-74.876017849054193,10.9867605812476],[-74.875978168258001,10.986789104690301],[-74.875945702914606,10.986821190018199],[-74.875909630013595,10.986849712001201],[-74.8758591261806,10.986888929643399],[-74.875815836680502,10.986906758338799],[-74.875768938900805,10.9869281532755],[-74.875722040554606,10.9869459825119],[-74.875678750672506,10.986967375986101],[-74.875628244394093,10.986985205755801],[-74.875584954497796,10.987006599218599],[-74.875545273064901,10.9870315569221],[-74.875509199179902,10.9870600788734],[-74.875476734673597,10.987092165062499],[-74.875447877344996,10.987131379393601],[-74.875415412824395,10.9871634655784],[-74.875382947375797,10.9871955508622],[-74.875382947925303,10.9871991156527],[-74.875314406175093,10.987238335927801],[-74.875260291898499,10.9872561661894],[-74.875213392364898,10.9872668657787],[-74.875162886550299,10.987288261179],[-74.875115987380198,10.987295396862301],[-74.875065480283098,10.9873025330779],[-74.875014971715999,10.987306103595801],[-74.874965953660904,10.9873014890393],[-74.874917564339697,10.987313245866501],[-74.874867055227099,10.987313252472999],[-74.874822442132896,10.9873262981635],[-74.874762431988103,10.987320395768901],[-74.874715530794504,10.9873204018146],[-74.874668629605296,10.9873204087574],[-74.874621729324403,10.987320414783101],[-74.874574829582301,10.9873239855936],[-74.874527928383202,10.9873239916105],[-74.874481028098103,10.987323997614499],[-74.874434126896602,10.9873240036169],[-74.874387226614701,10.9873240105108],[-74.874340325251595,10.9873168869079],[-74.874289814518207,10.987306199944699],[-74.874242913314504,10.9873062059172],[-74.874196013945806,10.987306212775399],[-74.874149113274498,10.987309783526401],[-74.874113040642101,10.987341869222201],[-74.8740913985649,10.987384647199899],[-74.874062542311194,10.987420297533401],[-74.874030076287099,10.987455947499701],[-74.874026469808399,10.9874595128145],[-74.874001220704699,10.9875022922149],[-74.873968756495202,10.987537942165901],[-74.873918250507501,10.987559336477],[-74.873874961960695,10.9875914232057],[-74.873831671814898,10.9876128164533],[-74.873795599263602,10.9876520326197],[-74.873748701555698,10.987669861583401],[-74.873701804510901,10.9876983840236],[-74.8736729463496,10.987734034343401],[-74.873658521499806,10.987780376949299],[-74.873658527451198,10.9878267156578],[-74.873665749812204,10.9878766199209],[-74.873680187514594,10.987922958341301],[-74.873705447579795,10.9879657303988],[-74.873741528422698,10.9879942426134],[-74.873784824083998,10.9880156250886],[-74.873824513257702,10.9880405719662],[-74.873867808397307,10.9880583896341],[-74.8739038901805,10.9880869018192],[-74.873947186392598,10.988111848155899],[-74.873986874681094,10.9881367959178],[-74.874030169835905,10.988154612654199],[-74.874080680186694,10.988161735749101],[-74.874138405489603,10.9881688568765],[-74.874185305917194,10.988168850903399],[-74.874232206343507,10.9881688449231],[-74.874282717228496,10.988179531871401],[-74.874329619809203,10.9881937850455],[-74.874369309740203,10.9882294253187],[-74.874401785268006,10.9882686323428],[-74.874423438062394,10.9883149687391],[-74.8744595204696,10.9883470465403],[-74.874506424856193,10.9883791209342],[-74.874549720609394,10.988400502377401],[-74.874593016379393,10.9884218856219],[-74.874643526939806,10.988436137298301],[-74.874690431018607,10.988453953384401],[-74.874733726253893,10.988471770909999],[-74.874780630521997,10.9884967174732],[-74.874823927222195,10.9885180988655],[-74.874867223741006,10.988550175539901],[-74.874910519907303,10.988567992126301],[-74.874942993532301,10.988600069497201],[-74.8749790760195,10.988632146316901],[-74.875018766081695,10.9886677864818],[-74.8750584554342,10.988692734070201],[-74.875098145885403,10.9887248103296],[-74.875123404763897,10.988764018341399],[-74.875152272500799,10.988803224896699],[-74.875184747092902,10.9888353022272],[-74.875220828713296,10.988867378110101],[-74.875253303325394,10.988899456335],[-74.875271347810298,10.9889422283941],[-74.875296607836702,10.988988565964901],[-74.875318261194394,10.9890313374679],[-74.875339913649498,10.9890741098781],[-74.875357958725303,10.989120448526499],[-74.875376003243005,10.989163220574101],[-74.875376009510603,10.989209561042999],[-74.8753724078326,10.9892559020587],[-74.875347159736293,10.9892986797452],[-74.875311086510294,10.989327202616],[-74.875271404954901,10.989359289017001],[-74.875235330792805,10.9893878109825],[-74.875195649589699,10.9894163334843],[-74.875148749172595,10.9894234683282],[-74.8750982415376,10.989423475020899],[-74.875052637860307,10.989408121586299],[-74.875008046456898,10.9894234876796],[-74.874961145303502,10.989419929021301],[-74.874932278057798,10.989384286341799],[-74.874928669011695,10.9893771573017],[-74.8748889815827,10.9893593401915],[-74.874842078975405,10.989352216727401],[-74.874795178383593,10.989352223736899],[-74.874748277784803,10.9893522298349],[-74.874697770496994,10.989366494731801],[-74.874665304762701,10.9893985808912],[-74.874658095018702,10.989444921551099],[-74.874676140391102,10.9894876945514],[-74.874690577448703,10.989534032886001],[-74.8747086224583,10.989580369775201],[-74.874715846717507,10.9896409674416],[-74.874712244941094,10.989687308466101],[-74.874694212627702,10.9897300859431],[-74.874672571445899,10.9897728648693],[-74.874632890847295,10.989812080790101],[-74.874589601022393,10.9898370389785],[-74.874546311728693,10.989865561049401],[-74.874503020804497,10.9898833905487],[-74.874459730412298,10.989904783930299],[-74.874420047592494,10.989929740662999],[-74.874387583230103,10.9899653915929],[-74.874365942148202,10.990015298287799],[-74.874373164197493,10.9900616377071],[-74.874394818630094,10.99011153977],[-74.874394824763598,10.9901578793572],[-74.874394830904095,10.990204219848501],[-74.874394837583793,10.990254124227199],[-74.874387628719106,10.9903004657872],[-74.874373203008403,10.9903468075231],[-74.874358778209597,10.9903931492533],[-74.874333529346103,10.9904323630048],[-74.874308279566904,10.9904715776652],[-74.874268599206601,10.990507228762301],[-74.8742217036189,10.9905535753094],[-74.874185630124302,10.990582097182999],[-74.874160380308396,10.990621310931701],[-74.874163994390699,10.9906676508924],[-74.874184633143301,10.9907130964509],[-74.874227252671403,10.9907331418657],[-74.874269871443303,10.990751182419899],[-74.874318577480096,10.990759196420401],[-74.874365254070099,10.9907591899259],[-74.874409898623099,10.990749159000201],[-74.8744545434663,10.990735116541799],[-74.874497156887401,10.990715061175401],[-74.874535712619405,10.990686984258501],[-74.874576296422106,10.990660913257001],[-74.874598288663293,10.990620380280699],[-74.874620930948794,10.9905766926759],[-74.8746452781063,10.9905365873874],[-74.874677742717495,10.9904964808835],[-74.874710208089695,10.9904583801348],[-74.874738613352307,10.9904202800004],[-74.8747670204271,10.990382178044699],[-74.874799484715595,10.9903460830587],[-74.874831950815405,10.990309986250599],[-74.874862385945505,10.990273890207],[-74.874890792238304,10.9902337851998],[-74.874911080297295,10.990191674749401],[-74.8749455750648,10.9901615944667],[-74.875061235145196,10.990057314149899],[-74.875097759770895,10.9900292370468],[-74.875132255707697,10.989995146122199],[-74.875150514595802,10.989953037324501],[-74.875189068334606,10.989924960361099],[-74.875233712861302,10.989912923576499],[-74.875280387612307,10.9899109121165],[-74.875327065146095,10.9899209315841],[-74.8753575104666,10.9899570184408],[-74.875379839898898,10.989997118037699],[-74.875406225913395,10.990035211267701],[-74.875432614533594,10.9900753093352],[-74.875461029844999,10.9901113978453],[-74.875489446988297,10.990147485435999],[-74.875507717127704,10.990189590496],[-74.875525986352102,10.990231694655201],[-74.875542228136197,10.9902758044189],[-74.875570644391999,10.990311892003],[-74.875603119844101,10.990347979865399],[-74.875643710095602,10.9903700297887],[-74.875690388679004,10.9903920801297],[-74.875735038414803,10.9904101196999],[-74.875781714973996,10.990422143945199],[-74.875828390074602,10.9904161226734],[-74.875877093531997,10.9904080957806],[-74.875877094303604,10.9904101006325],[-74.875929853918606,10.9903800160853],[-74.875978558279996,10.990371989172001],[-74.876017111976097,10.9903439130125],[-74.876045518729597,10.990307817631001],[-74.876063776569694,10.9902657078988],[-74.876090153402501,10.9902276075226],[-74.876126678070506,10.990197525451499],[-74.876172017068598,10.9901793765309],[-74.876221350522101,10.9901793696498],[-74.876270685945798,10.9901915483312],[-74.876315910074197,10.9902077901193],[-74.876352914440304,10.990240279725301],[-74.876377586700897,10.9902808965009],[-74.876396118757,10.990306064849699],[-74.876400791929697,10.9903124113996],[-74.876410482633204,10.9903255735197],[-74.876439266202098,10.9903621262666],[-74.876476270607,10.9903946167562],[-74.876492721160304,10.9904392966806],[-74.876513283012002,10.990479912580801],[-74.876525622214501,10.9905245916495],[-74.876525629296594,10.9905773969954],[-74.876525636326903,10.9906261401797],[-74.876517421560607,10.9906748843683],[-74.876493521243901,10.990714253615],[-74.876500989129397,10.990760188086901],[-74.876483696262696,10.9907943728387],[-74.876481909939798,10.9908350977203],[-74.876467710276103,10.990879211699699],[-74.876461628854301,10.990925330170199],[-74.876451488375395,10.9909694435147],[-74.876425111544293,10.9910075439237],[-74.876390616877003,10.9910376252685],[-74.876345972899799,10.9910536719504],[-74.876309447386802,10.9910817483045],[-74.876264803397007,10.9910977949762],[-74.876220159266694,10.991115847403499],[-74.876175514490598,10.991129889212299],[-74.876130869709399,10.9911439310153],[-74.876100434683707,10.9911800271733],[-74.876094353199505,10.991226144741701],[-74.876096383613003,10.991234165202799],[-74.876078124187899,10.991272264336301],[-74.876080160176599,10.991318380649099],[-74.876074078701507,10.9913645000263],[-74.876059879458893,10.9914146294693],[-74.876051767910397,10.991460746904099],[-74.876047716479704,10.991506864606899],[-74.876041634853493,10.991554987937199],[-74.876031494309601,10.9915991021841],[-74.876021354752197,10.9916552464668],[-74.876015274032099,10.991703368887499],[-74.876009192401895,10.9917514922181],[-74.875999051704198,10.991797610418001],[-74.875984852863894,10.9918417252902],[-74.875968623811005,10.9918878439812],[-74.875948336470799,10.991933964200999],[-74.875942254831003,10.991982087532101],[-74.875938202468603,10.9920282043373],[-74.875934150117601,10.992074322951099],[-74.875919951255099,10.992118436919],[-74.875911839689095,10.992164555259],[-74.875911839547697,10.992166560116299],[-74.875893584011607,10.9922267153581],[-74.875881413373804,10.9922708294714],[-74.875875331861096,10.9923169470416],[-74.875871279362201,10.9923650705132],[-74.8758712860744,10.9924131933544],[-74.875871292782193,10.9924613152912],[-74.875875358703595,10.992509436597199],[-74.875887541505406,10.9925535469379],[-74.875889576597501,10.9925996641617],[-74.875897701747405,10.992647785739299],[-74.875913942860905,10.9926918954513],[-74.875934242420996,10.9927339996781],[-74.875954541987696,10.992776103902401],[-74.875963392625394,10.992822434081001],[-74.875991084615194,10.9928743487622],[-74.876013414405705,10.992914447350801],[-74.876035743293301,10.9929545468467],[-74.876070247504401,10.9929886280745],[-74.876102723495407,10.9930227109624],[-74.876118963752305,10.9930668206596],[-74.876116934597306,10.9930668205222],[-74.876149412249902,10.9931169440489],[-74.876183915849893,10.993147014646],[-74.876220449671493,10.9931750814164],[-74.876254953290896,10.993205152907301],[-74.876291486988194,10.993235224523501],[-74.876319904451094,10.993273317724499],[-74.876350350666399,10.9933174256269],[-74.876376739499094,10.993361534152699],[-74.876405157117404,10.993397621580799],[-74.876419368158494,10.993443736875999],[-74.876445756372306,10.9934838356846],[-74.876482290118503,10.9935139063642],[-74.876522882458801,10.9935399675937],[-74.876561444591502,10.993568032640299],[-74.876604065188005,10.993594093996],[-74.876636541168196,10.993630180756499],[-74.876646693949397,10.993676296670399],[-74.876658878370193,10.993726422411701],[-74.8766771496161,10.993772537035101],[-74.876699478663696,10.993812635550301],[-74.876729924747096,10.9938467182157],[-74.876768486945494,10.993874784130099],[-74.876798933691504,10.9939128764924],[-74.8768131466651,10.993958992646499],[-74.876813146531802,10.9939609975025],[-74.8768070663521,10.9940171411455],[-74.876790837505794,10.994061255016801],[-74.876780696133693,10.9941053683789],[-74.876768526252306,10.994153492219899],[-74.876760416655898,10.9941996114572],[-74.8767502752779,10.9942437248195],[-74.876711720306801,10.9942718011428],[-74.876665044134199,10.9942718071788],[-74.876618366020494,10.9942597840875],[-74.876585889954598,10.994223696433201],[-74.876541241781098,10.9942136765033],[-74.876494565618998,10.994213683415801],[-74.876445860937395,10.994217699894399],[-74.876401215871297,10.994229736952301],[-74.876354541371299,10.994245784486999],[-74.876315986490397,10.994271855909799],[-74.8762835205127,10.9943039422919],[-74.876257143433193,10.9943420427307],[-74.876232796152806,10.9943841530109],[-74.876208449918394,10.994424258427999],[-74.876182072682994,10.994464363720001],[-74.876159756242004,10.9945084789781],[-74.876129319250694,10.994542570342301],[-74.876088735008196,10.994570646466601],[-74.876070471221198,10.9945766643404],[-74.876042059555601,10.994572658169901],[-74.875997409001201,10.9945566236124],[-74.875954789579097,10.9945385834119],[-74.875910140086702,10.9945205439773],[-74.875859404753498,10.9945185456746],[-74.875810698445306,10.9945185523581],[-74.875761993686595,10.994522568736601],[-74.875717348532007,10.994534605705899],[-74.875674733953403,10.994552658272401],[-74.8756341482419,10.994574718878599],[-74.875595593109296,10.9946027959885],[-74.875557038878398,10.9946308721847],[-74.875522542831703,10.9946609535136],[-74.875492106653198,10.9946950439183],[-74.875461670332001,10.9947311400828],[-74.875435293106094,10.994769240472801],[-74.875419063879306,10.994815359166401],[-74.875419070721094,10.9948614762507],[-74.875421106738102,10.9949075943791],[-74.875443436516505,10.9949496978494],[-74.875471867728706,10.9950940601813],[-74.875441431513195,10.995128151492599],[-74.875410994369901,10.9951622419033],[-74.875384618666502,10.9952043538074],[-74.875368908762894,10.995253573796001],[-74.875339985234206,10.9953086240172],[-74.875339991934993,10.995356745959601],[-74.875348116375307,10.995402862694],[-74.875376533212602,10.995438951112201],[-74.875411037697702,10.995473032374599],[-74.875458368488793,10.995483302664301],[-74.875482075011703,10.9955271601284],[-74.875522665901798,10.995551216611499],[-74.875563258477101,10.995577276125401],[-74.875603850155102,10.9956033374469],[-74.875648498397993,10.995615362341599],[-74.875693148056996,10.995633401788901],[-74.875737797859202,10.9956494363717],[-74.875784477482597,10.9956694816964],[-74.875831155815703,10.9956815048838],[-74.875890009962504,10.9956955328262],[-74.875940746138596,10.995701540798301],[-74.875991482457906,10.995705544809301],[-74.876042218123601,10.9957055372954],[-74.8760909244901,10.9957075363036],[-74.876137601547001,10.9957115400261],[-74.876188339018,10.9957255682744],[-74.876241104240506,10.9957335820891],[-74.876281697025306,10.995757636635799],[-74.876326345437704,10.9957676565661],[-74.876366936407905,10.9957917120151],[-74.876393324877697,10.9958318107892],[-74.876433917290797,10.995861880784],[-74.876470450593501,10.9958899474664],[-74.876513071940295,10.9959099924007],[-74.876561781980698,10.995940061990501],[-74.876604402947606,10.995966122381899],[-74.876640937187105,10.995994188128901],[-74.876671382621396,10.996028271669701],[-74.876693712673102,10.9960703750022],[-74.876724158900004,10.996106462481199],[-74.876724165063393,10.996152579534],[-74.876720112888094,10.996198698135601],[-74.876712001439699,10.996244815579001],[-74.876693744256897,10.996288930230101],[-74.876675485370598,10.9963310400364],[-74.876647078124293,10.996369141305699],[-74.876610553642607,10.9964012274901],[-74.876571998541294,10.996427298984401],[-74.876533443300403,10.9964553753308],[-74.876500977150798,10.996487461767201],[-74.876460392067003,10.996511528269201],[-74.876438217835897,10.99652358218],[-74.876424986271104,10.9965307753708],[-74.876419806193795,10.9965335899164],[-74.876377191923098,10.996557657182199],[-74.876351531254002,10.9965861883435],[-74.876344727307995,10.996593753307399],[-74.8763122609883,10.9966278445853],[-74.876283854710906,10.996663940066099],[-74.876253417550799,10.996698030568],[-74.876231099318403,10.996740141910401],[-74.876208782118397,10.996780246581601],[-74.876206511903902,10.9967835251569],[-74.876285310404697,10.996839106788499],[-74.876782075898802,10.9971895077878],[-74.876453138950794,10.997767711127601],[-74.875743308606403,10.9982850789584],[-74.875189125750794,10.999611371842301],[-74.875130736757498,11.000035264202101],[-74.874309269715894,11.001973805700301],[-74.874320801532903,11.0021727516318],[-74.877218553072396,11.0039749298889],[-74.877284086751402,11.004047745831301],[-74.877423865031901,11.004090741695499],[-74.878364130327398,11.004636302869599],[-74.879831887687999,11.005654233642501],[-74.878707766383101,11.0068308337212],[-74.878701563341593,11.0068044129436],[-74.878559698945097,11.006582989960901],[-74.878793363778101,11.006567208239],[-74.878791411973793,11.006547513628799],[-74.8785209726407,11.006228093145801],[-74.878216608084202,11.005858853999801],[-74.877539417605703,11.005405101584101],[-74.876719145120205,11.005059992699699],[-74.876658644188495,11.0050345386014],[-74.875643067875899,11.0043290350081],[-74.874728821317703,11.0038408170743],[-74.874151171313201,11.003385225644401],[-74.873984159948293,11.0032535042255],[-74.873476972574494,11.002648647586399],[-74.873181160548597,11.002296379877],[-74.873166181792897,11.0014925594062],[-74.873372456700196,11.0002698323805],[-74.873567788884301,10.999534010633001],[-74.873594697879597,10.9994326441324],[-74.873851687957298,10.9982948203797],[-74.873966801131303,10.9978147342509],[-74.874108517860293,10.9972236969056]]]}},
{"type":"Feature","properties":{"OBJECTID_1":17,"OBJECTID":234,"HECTARES":22.242,"SIM_ZONFIN":"ZRA","Shape_Leng":2166.57256332,"AREA_HAS":22.260342605000002,"Shape__Area":8307394.2802734375,"Shape__Length":19253.50240610752},"geometry":{"type":"Polygon","coordinates":[[[-74.839646481984005,11.0532163581425],[-74.839018349253294,11.052535258983101],[-74.838225951126503,11.0516718994076],[-74.837568793638496,11.0509763694907],[-74.8369598472311,11.050376670210399],[-74.836413884592801,11.0497771232343],[-74.836148189700907,11.049470187967099],[-74.835413812553199,11.048659606215001],[-74.835154598981504,11.048376905268199],[-74.835070770438804,11.0482854807441],[-74.834975324440407,11.048186494126201],[-74.834825460686204,11.0480310719602],[-74.834820411312407,11.0480404017765],[-74.8348048333322,11.0480096794894],[-74.834524170963903,11.047718606297799],[-74.8342058093628,11.047388434798799],[-74.834178685306995,11.0473600034817],[-74.833427853283297,11.046572956884001],[-74.833126033504698,11.046260300837501],[-74.832982001802407,11.046112178924201],[-74.832789999941397,11.0459157488547],[-74.832553224499705,11.045671096955999],[-74.832070031524296,11.0451626247552],[-74.831818806679493,11.044884435709699],[-74.831200399550994,11.0442033433023],[-74.830740977987105,11.0438767866659],[-74.830204165154598,11.0435021807606],[-74.829682491350894,11.0433929861642],[-74.829674756393004,11.0432899239515],[-74.829808168691699,11.043254075605599],[-74.829905019550793,11.0431943966868],[-74.830050626617904,11.043087356231601],[-74.830099143633404,11.0431349561948],[-74.830111429261507,11.0430275895388],[-74.829929879627201,11.042978532115299],[-74.829820695885402,11.0430506170252],[-74.829627249606105,11.0429540500168],[-74.829349432146799,11.0426187432325],[-74.829307631652895,11.042402716280399],[-74.829416873970402,11.0423080220634],[-74.829441432941607,11.0422119902512],[-74.829308171802793,11.0421879228818],[-74.829187153636695,11.042187625942899],[-74.829126531846399,11.042175041336501],[-74.829042176959206,11.042043697883001],[-74.829030477485404,11.0418040035148],[-74.829067352396606,11.041589298927599],[-74.829213230082004,11.0413737322671],[-74.829322653024306,11.0412066870185],[-74.829504653788007,11.0410759958328],[-74.829650321222204,11.0409440853531],[-74.829916990896805,11.0409334330459],[-74.830171209240902,11.040981537729699],[-74.830352939180798,11.0409582414088],[-74.830412428978804,11.040853018397],[-74.830303133029901,11.0407414988907],[-74.830031961309103,11.0406999554883],[-74.829976798135604,11.0406952780304],[-74.829747144372604,11.040599332131601],[-74.829696613241197,11.0405810390677],[-74.829334567898101,11.0401077734798],[-74.828917658780895,11.039511735795999],[-74.828491577367302,11.038906590872299],[-74.828404675616994,11.0387246931436],[-74.828326889005595,11.038574613470599],[-74.828177922565004,11.038390292368],[-74.828167574944999,11.038377933856101],[-74.828404307403204,11.0382535698498],[-74.828425756677404,11.0382427303519],[-74.828452248153297,11.0382286355646],[-74.829064007477498,11.037882424164801],[-74.829237320168502,11.0377899106422],[-74.829362413366198,11.037723135273501],[-74.829537468558698,11.0376296904725],[-74.829728723555604,11.037527598172399],[-74.830781607001299,11.036965563243999],[-74.831124648379898,11.036778113542701],[-74.831142024776995,11.036768617924899],[-74.831178635099505,11.0367486134584],[-74.831187892596503,11.0367435547341],[-74.831849565100896,11.0363819915219],[-74.832360958083598,11.0360979754706],[-74.832393731788997,11.0361292279418],[-74.832320465582598,11.036368714266199],[-74.832429046863595,11.036536293256001],[-74.832658795164704,11.036644250927599],[-74.832755539688705,11.0367405787844],[-74.832670270732805,11.036860203916],[-74.832549045901601,11.0369435641718],[-74.832391395608497,11.0370630131775],[-74.832403141980194,11.037170438770101],[-74.832500008154696,11.037218155571001],[-74.832718070213403,11.037194947642901],[-74.833032829375597,11.037171975433401],[-74.8331904347463,11.0371847952864],[-74.833299076464698,11.037328633038699],[-74.833419438173706,11.0375912022979],[-74.833569654873301,11.0379946523484],[-74.833575740450698,11.0380109974069],[-74.833611119507907,11.038393191935301],[-74.833731256906404,11.038860379200401],[-74.833851466812007,11.039183994788001],[-74.833911461384403,11.0394475459932],[-74.833813698539302,11.039758194204699],[-74.833655957133004,11.0399138185825],[-74.833388871675396,11.0400917863074],[-74.833012739522403,11.040401755091199],[-74.832854848138993,11.040617294542701],[-74.832672878184795,11.040736683184999],[-74.832490880241096,11.040867376920801],[-74.832417583901403,11.041118167660301],[-74.832235582552897,11.0412499917243],[-74.831799332599701,11.041345017902],[-74.831532663804893,11.0413556710068],[-74.831193819747199,11.0412836209566],[-74.831060980678004,11.041091112301901],[-74.831049265341505,11.0409712501072],[-74.830936450804998,11.0408941012955],[-74.830734484327195,11.040886823767901],[-74.8305889981023,11.0409463836203],[-74.830709866053496,11.041006596425801],[-74.830939690916907,11.0411993425814],[-74.8311328981776,11.041390869404299],[-74.831375070665501,11.041451378179501],[-74.831932128712097,11.041440304719],[-74.832295648132899,11.0413699708243],[-74.832550346111105,11.0412270202297],[-74.832684296933195,11.040975246459499],[-74.832951069275893,11.04080858337],[-74.833096882702705,11.0406178856423],[-74.833182331076699,11.040427039720401],[-74.833424697212195,11.0402953624387],[-74.833703802061905,11.040116293643999],[-74.833970931422996,11.039806058395399],[-74.8340564376674,11.039591473381799],[-74.8341052675773,11.039399406729],[-74.834009295103101,11.0389933253335],[-74.833841034920695,11.038549760456201],[-74.833793355922793,11.0381664060841],[-74.833751688873406,11.037710927657001],[-74.833746290595201,11.037651914950301],[-74.833771861507103,11.0371500370312],[-74.833821436775807,11.0366595222435],[-74.834076906077996,11.036205684621301],[-74.834124639728202,11.0361085781974],[-74.834247423118299,11.0358590377132],[-74.834235360966503,11.035762915579101],[-74.834451834905394,11.035572389306999],[-74.834609481360005,11.0354540708047],[-74.834815496108305,11.0354421364659],[-74.834878090803201,11.0354660294393],[-74.834890287497501,11.035393707000299],[-74.834817005915596,11.0351809954354],[-74.834784738414896,11.0347494756427],[-74.834855571163999,11.0347100076598],[-74.8349925160814,11.034646456638599],[-74.835129514831905,11.0346039751688],[-74.835300089923507,11.0345854891149],[-74.835516359736701,11.0345638783564],[-74.836003834450096,11.0345566384982],[-74.837073233817307,11.0345419209588],[-74.837332173742695,11.034526222174399],[-74.837332541181397,11.034526132226],[-74.837369105277602,11.034538289771699],[-74.837296258220405,11.034610465529299],[-74.837368748084003,11.034681861929],[-74.837647457417006,11.0346587974788],[-74.837974723710701,11.0345521940108],[-74.838204444033707,11.0346714525589],[-74.838349508061199,11.0347803311804],[-74.838437967400296,11.034948540656201],[-74.838494159379806,11.0350553920837],[-74.8385299880823,11.035258969011799],[-74.838712840918205,11.0347812114611],[-74.838822404260398,11.0345542460408],[-74.838907907972398,11.034338528165801],[-74.839126471175007,11.0341118270064],[-74.839381217468102,11.0339451296097],[-74.839441879708303,11.033825443630001],[-74.839587419332105,11.0337421387233],[-74.839683381411703,11.033618887827499],[-74.839745558258301,11.0335390317743],[-74.839830564351004,11.0334080991239],[-74.840024452791795,11.033324910985399],[-74.840303371231997,11.0332170571216],[-74.840460571260493,11.0332773530026],[-74.840618174212594,11.033290169272799],[-74.840775759640493,11.0331944575116],[-74.840897188940801,11.0330274368959],[-74.841091214579706,11.033004165181399],[-74.841296763643498,11.033064576452301],[-74.841575384022207,11.033076553595301],[-74.841878240587803,11.0330060624628],[-74.842096565362993,11.032874320590199],[-74.842375685771103,11.0326839378393],[-74.842666793225803,11.032504890028999],[-74.842818398846305,11.0323978581372],[-74.843000328596204,11.0322908985521],[-74.843169888747894,11.032327482419401],[-74.843448124241803,11.0324954660895],[-74.843653439590497,11.032650838392099],[-74.8439317344328,11.0327950790511],[-74.844161629257997,11.0328442440795],[-74.844476816432405,11.0327613440648],[-74.844973905885098,11.032582788172901],[-74.845531595272007,11.032308284533499],[-74.846149961031401,11.0320226199307],[-74.846683583084896,11.031761623404099],[-74.846829092741899,11.0316896196874],[-74.847107602256798,11.031630369971699],[-74.847398439394397,11.0315598439203],[-74.847592405253494,11.0315603079819],[-74.847737621591605,11.031608136453301],[-74.847870358015001,11.0317282863251],[-74.848039859478504,11.031788608031899],[-74.848281911686399,11.0318965834074],[-74.848511399432596,11.032111925727699],[-74.848559278129002,11.0323042251394],[-74.848575340452498,11.032337416112499],[-74.848703879955494,11.0326030222706],[-74.8487881153724,11.0329028053245],[-74.848702707364396,11.0330823495835],[-74.848290239032906,11.033403556446499],[-74.848216627404994,11.0335559984893],[-74.848168606497893,11.0336553671199],[-74.848095383374599,11.033882422354001],[-74.848022396170094,11.034013385644499],[-74.847937309253496,11.0340617930615],[-74.847695219833795,11.0340849554145],[-74.847537703742503,11.0340359668298],[-74.847404673329393,11.0340356495526],[-74.847295437470606,11.034131480220699],[-74.8472461573961,11.0343947675115],[-74.847184500739004,11.0349214326616],[-74.8470386108838,11.0351483132767],[-74.846989331734804,11.0354104710678],[-74.846868049947503,11.0355187082728],[-74.8468314216789,11.03563845315],[-74.846806813248804,11.0357570965223],[-74.846673516232698,11.0358653047536],[-74.846527243831503,11.036247062700101],[-74.846544443377098,11.0365828619829],[-74.846617199331106,11.0365468604342],[-74.846723795361299,11.036459401884599],[-74.846762828275402,11.0364273760523],[-74.846847862791293,11.036284007202999],[-74.846908835919294,11.036153015119099],[-74.847042300313504,11.0360934175857],[-74.847102372783993,11.036213393875499],[-74.847005468013094,11.036296819837],[-74.846956746185597,11.0363317479679],[-74.8469565117868,11.036427839939],[-74.846919825885394,11.0365713254449],[-74.846774344362103,11.0366308931454],[-74.846633025879498,11.0366630272063],[-74.846616906270398,11.0366666921391],[-74.846507406519294,11.036869919800701],[-74.846324622172503,11.037323942283599],[-74.846279207069301,11.0374424701481],[-74.846178349791103,11.037705699305899],[-74.846044383331005,11.0379687839364],[-74.845934500654394,11.038328019402501],[-74.845837389661398,11.0384950998354],[-74.845799402964502,11.0385434322972],[-74.845630755903997,11.038758009677901],[-74.845618534571202,11.0388416381409],[-74.845666678303999,11.038925410511499],[-74.845684356229796,11.038930412179999],[-74.845751304373096,11.0389493538843],[-74.845836420358495,11.038889641711201],[-74.845909262865206,11.0388185945045],[-74.846066614211097,11.0388189709217],[-74.846029810600996,11.0390099367633],[-74.846005023968004,11.0392009324359],[-74.845847172193899,11.039404042451901],[-74.845652929535902,11.039630807951999],[-74.845421314970494,11.039815197616001],[-74.8453980915572,11.039833686057399],[-74.845215921186096,11.040036737889199],[-74.845118847266306,11.040072681264901],[-74.845051450038198,11.040372100855601],[-74.845099526599498,11.040599445777101],[-74.845135450020393,11.0407668466614],[-74.845196689999895,11.0407591203787],[-74.845232180825207,11.0407546419969],[-74.845329461127903,11.0406350438441],[-74.845438727137207,11.0405279083321],[-74.845511484162401,11.0404919068799],[-74.845595990505103,11.040564460998899],[-74.845619927464398,11.0407193973271],[-74.8456801378655,11.040899290656],[-74.845788963221196,11.0409719026198],[-74.8458901334008,11.0409815986786],[-74.845909953412402,11.0409834980883],[-74.845928803408498,11.0409743173248],[-74.846055464490405,11.0409126253479],[-74.846202094297496,11.0403861654229],[-74.846422654700206,11.039345505661901],[-74.846557704762304,11.038640398798],[-74.846679515728994,11.038317368251001],[-74.846752477028005,11.038197710147699],[-74.846910032910998,11.0381144306306],[-74.846995354227005,11.0379710617493],[-74.847225577272795,11.0378879556249],[-74.847382955297405,11.037877027249399],[-74.847431417011904,11.0379483647362],[-74.847503937163793,11.038008454885301],[-74.847613085428904,11.0379487991588],[-74.847722349640406,11.0378416630977],[-74.847867861717305,11.0377696593713],[-74.847964441180594,11.037818502046401],[-74.847964003708796,11.037997119050299],[-74.848048328616002,11.038260726883101],[-74.848156449150096,11.038620483373901],[-74.848276821738807,11.038884176719099],[-74.848434025924306,11.0389444685943],[-74.848779499185397,11.0389542521854],[-74.848870004112598,11.0389568140632],[-74.849028050422305,11.0387898780874],[-74.8490407386426,11.0385151972431],[-74.848788452357297,11.0376768974395],[-74.848734835261894,11.037257353911899],[-74.848688094362799,11.0365992934539],[-74.848711394562102,11.036339963741099],[-74.848750443700098,11.0359053166296],[-74.848933427130007,11.0353676370136],[-74.849127840705904,11.0350696493285],[-74.849297348252506,11.0351288395428],[-74.849636507716298,11.035070862655299],[-74.850170662571003,11.0345928049913],[-74.850498186225593,11.0343787900173],[-74.850752753610294,11.034283303936601],[-74.850943131940198,11.034113052737901],[-74.8510196863228,11.0340442744247],[-74.851140848174396,11.0339846465283],[-74.851347004799507,11.0339139159019],[-74.8516495700365,11.0339621162172],[-74.851904019052299,11.0339152399029],[-74.852316335450894,11.0337726462324],[-74.852492023925095,11.0337606287471],[-74.852589101490594,11.033722421726701],[-74.852734285474497,11.0336662419276],[-74.853146573870404,11.0335349523051],[-74.853558254794706,11.033535929782399],[-74.854126987758306,11.0337769428327],[-74.854598710201699,11.034029030560699],[-74.854806733303406,11.034132398307801],[-74.855058189840605,11.0342573482387],[-74.855275897714407,11.0343776972733],[-74.855529883714993,11.0345218706199],[-74.855820316923598,11.034618650292501],[-74.856014284826401,11.0346191086259],[-74.856159736772,11.034570841069099],[-74.856317025124895,11.0345960834309],[-74.856328753767599,11.034714813569099],[-74.856219578022007,11.0347869074344],[-74.856171084415095,11.0348467096088],[-74.856352490777098,11.0349545356299],[-74.856546058584897,11.035002473612799],[-74.8567878236166,11.035231404518999],[-74.856992709043098,11.035686348498301],[-74.857101537346693,11.0357578267681],[-74.857355727368201,11.035818343144401],[-74.857476887273094,11.035758712813299],[-74.857562264145699,11.035471767606801],[-74.857429926706899,11.0351843082224],[-74.857394604097706,11.034765940860099],[-74.8575412981928,11.034203298550199],[-74.857663324376901,11.0337853029],[-74.8578090035722,11.033642072744099],[-74.858051869470401,11.033415415566701],[-74.858264264789199,11.033248602028801],[-74.8584397508275,11.0331671281812],[-74.858470193415897,11.033152994153401],[-74.858579539042907,11.033009679149901],[-74.858761436808294,11.032914015069901],[-74.858967476634902,11.032890758784299],[-74.8590241933844,11.0329210860767],[-74.859124623841296,11.0329747866469],[-74.859257940377404,11.0329750997983],[-74.859415433362003,11.0329155543133],[-74.859560678215104,11.032952070766999],[-74.859730213362496,11.032999951788501],[-74.859899947066495,11.032965304513199],[-74.860118265282694,11.0328335500212],[-74.860287742976794,11.0327864661618],[-74.860566102888399,11.032906954257101],[-74.860771425542495,11.033182147016401],[-74.861049010892003,11.033506121156799],[-74.861291271462306,11.033530430182701],[-74.8614848959771,11.0335546245974],[-74.861666300841506,11.0336635776634],[-74.861823619885698,11.033795083940801],[-74.861932419519107,11.0338789967221],[-74.862065276561495,11.0339516593023],[-74.862113339009497,11.0341903064647],[-74.862209748638193,11.0343103665824],[-74.862233491171594,11.0345500874132],[-74.862184770556397,11.0347048511387],[-74.862002842631199,11.0348129526864],[-74.861844923295706,11.0349312853955],[-74.861775202125997,11.0350261750693],[-74.861747906152601,11.035063325709601],[-74.861602630412406,11.035039245037501],[-74.861445169151906,11.0349665237196],[-74.861251254632805,11.035062160212799],[-74.861496745978499,11.0352899669442],[-74.861580277014795,11.0357694938525],[-74.861689056069693,11.0360998542731],[-74.861745405099498,11.0361045087639],[-74.861878437256607,11.036104821382599],[-74.862156803861794,11.036224175156701],[-74.862279865510999,11.036326208333],[-74.862374373852006,11.036404433698801],[-74.862640035378305,11.0366922023171],[-74.8629906672858,11.036980170474999],[-74.863374183555905,11.0372749975686],[-74.863552662700798,11.0374122051243],[-74.8638187558021,11.0376400571094],[-74.864096491976696,11.0379041127633],[-74.864350685289494,11.037964622718199],[-74.864495906331996,11.0380124430856],[-74.864568374031094,11.0380962689584],[-74.864567943713098,11.0382760174793],[-74.864664155029502,11.0385995644411],[-74.864712324166206,11.038675420045699],[-74.864869368835201,11.0389233660458],[-74.865304288196,11.0393788411034],[-74.865787446339098,11.039881909557],[-74.866500479420395,11.040566391060301],[-74.866723694268401,11.0409015383994],[-74.866965388987794,11.0411655070554],[-74.867376282472904,11.0415010905605],[-74.867557468905702,11.0417050020734],[-74.867787490195198,11.041705536263001],[-74.868041658865494,11.0417773492296],[-74.868259548609402,11.0418264669909],[-74.868315942515693,11.041932864782],[-74.868380313178093,11.042053977111401],[-74.868621640593204,11.042352989280101],[-74.868874895818806,11.0428091673519],[-74.869297756227098,11.0432883496459],[-74.869575645702596,11.043612317263801],[-74.8696086838209,11.0436757016122],[-74.8697442502272,11.0439348996394],[-74.869743767969098,11.0441383888028],[-74.869852711400696,11.0441635112273],[-74.869961916288702,11.044078977101099],[-74.870131629458399,11.044055630015601],[-74.870240716186203,11.0440208372295],[-74.870361708813704,11.044032422546501],[-74.870443107080902,11.0440913978229],[-74.870494802306993,11.044128823353001],[-74.870700141744294,11.044404010029099],[-74.870693450443397,11.0445713080837],[-74.870680895326203,11.0447985086226],[-74.870571550149293,11.0449418285696],[-74.870522916206099,11.045061549665499],[-74.870522432776397,11.0452650378357],[-74.870425190259397,11.0453722100213],[-74.870303687174996,11.045575417957901],[-74.870181953948006,11.0457548855266],[-74.870072436576194,11.0459705557991],[-74.869963035094699,11.046137616841399],[-74.870023149013903,11.046364985097499],[-74.869974457231393,11.046508446482299],[-74.8699862179934,11.046615870091101],[-74.870252264170702,11.0467487555881],[-74.870542915124403,11.0467607334629],[-74.870712742672893,11.046689905215899],[-74.871003222139393,11.0467742348402],[-74.871281460661507,11.046953497436199],[-74.871571516230901,11.0472175741761],[-74.871765121388805,11.0472541975364],[-74.871959039641993,11.047158553621999],[-74.872056648513194,11.0468965039368],[-74.871948382746695,11.046584235626201],[-74.871815484058999,11.046405310843101],[-74.871646594411501,11.0462014298891],[-74.871622615073505,11.046057802005601],[-74.871804572877906,11.0459383892461],[-74.871877695395497,11.045747504719101],[-74.871962720287897,11.0456041277131],[-74.872071470721096,11.0457117767944],[-74.872168147748397,11.045843137356799],[-74.872193790390995,11.0458431966536],[-74.872775220361504,11.0466566196567],[-74.872589457766793,11.046981391704101],[-74.872503921035502,11.047219728140201],[-74.872418696090094,11.0474467623929],[-74.872539318987194,11.047615484363],[-74.872321945240401,11.047708814089599],[-74.872175667390096,11.0477423910274],[-74.872093532287906,11.047752375495801],[-74.871500944532698,11.0479013622235],[-74.870657680785101,11.0480712455714],[-74.870032421688805,11.048242763573899],[-74.869327158890698,11.0483700050049],[-74.868723780491905,11.048483914552801],[-74.868538381977103,11.0485455734113],[-74.868018260933098,11.048718550697799],[-74.866927744661893,11.048910457939799],[-74.866178837664293,11.0491020295997],[-74.865737247698206,11.0492762262264],[-74.865676834176199,11.0492953045009],[-74.865109584817304,11.0494940794428],[-74.864527705591996,11.049708646095199],[-74.863589557981697,11.049950639772099],[-74.862571621475894,11.050177747816299],[-74.861350485896494,11.050311675467199],[-74.860492461887503,11.0505459344746],[-74.859532529245101,11.0508025620054],[-74.858629984819004,11.0513453366882],[-74.858266040711598,11.051588666112799],[-74.857876649762602,11.0518251529958],[-74.8574111378217,11.0520682418258],[-74.857032707883604,11.0522674469831],[-74.856559840531403,11.0524754724965],[-74.8561597334228,11.052646361796],[-74.855752630046894,11.052752796777201],[-74.855483445438495,11.052852774754999],[-74.855141486372005,11.0529955372537],[-74.854777658182599,11.053189122335301],[-74.854370448793603,11.053338513186301],[-74.854079379051697,11.0534960927429],[-74.853904315649302,11.0537172552129],[-74.853765809648095,11.0538469333877],[-74.853438282894899,11.054054167759],[-74.853270830374896,11.0542041261638],[-74.8531033936829,11.0543473029223],[-74.852769130996094,11.0543826851838],[-74.852558270022996,11.0543821837792],[-74.852442110499098,11.0543819078624],[-74.852336643542102,11.0543375685971],[-74.852152863450797,11.0542602573083],[-74.852174255134798,11.053870378550201],[-74.852178911336196,11.053785511385099],[-74.8517277049488,11.053438505730499],[-74.851223385347396,11.053518701829301],[-74.851353793712406,11.0531900372464],[-74.851377077326006,11.0530284321724],[-74.851369810241493,11.052840752692999],[-74.851301491489295,11.0526981474147],[-74.851195010870896,11.0526006715184],[-74.851026765003297,11.0527234949777],[-74.850850772566304,11.052972916208301],[-74.850560828457006,11.0530208360935],[-74.850390138469194,11.052972948660599],[-74.850339449716998,11.052992046024199],[-74.850280440771002,11.053021299149499],[-74.850259234642493,11.0531523852072],[-74.850259063482298,11.053222476443301],[-74.850258485991304,11.053458748823299],[-74.850211359591995,11.053542293323201],[-74.850159832887798,11.053553475768901],[-74.850077110110504,11.0535691047812],[-74.850012419409197,11.053581385998999],[-74.8499027514804,11.053617300007399],[-74.849676587516896,11.0537908577252],[-74.849566915519603,11.0539454735777],[-74.849514123097606,11.054006394929701],[-74.849481701553202,11.0540436242106],[-74.849174751958898,11.0544928295311],[-74.8487660530391,11.0551317139509],[-74.848285043411295,11.0557399025418],[-74.847796677016206,11.056313027177],[-74.847072109687602,11.056950023319599],[-74.846175720390605,11.057881666250401],[-74.845353681861994,11.0585941668059],[-74.844701053227794,11.0591770671532],[-74.844320334945905,11.0595608378888],[-74.843644843613902,11.058538211978],[-74.843345596732306,11.0580780574175],[-74.842925500127393,11.057507539465],[-74.842563320897696,11.057028089312],[-74.842008224480793,11.056194026932101],[-74.841626880498396,11.0556283859699],[-74.841462713575098,11.0554030589508],[-74.841061969070793,11.054846941849201],[-74.840767421434293,11.0544490111961],[-74.8405355593151,11.0541708760448],[-74.839917088335397,11.053499373380999],[-74.839646481984005,11.0532163581425]]]}}
]
}
